{
  "type": "FeatureCollection",
  "route": {
    "route_id": "beirut-damascus",
    "name": "Beirut-Damascus Railway",
    "name_arabic": "سكة حديد بيروت-دمشق",
    "countries": "Lebanon, Syria",
    "gauge_mm": 1050,
    "year_opened": 1895,
    "era": "historic",
    "color": "#b45309",
    "corridor_confidence": "medium",
    "description": "Mountain railway with rack section",
    "notes": "The rack section over Mount Lebanon (Dar al-Baidar pass) is the defining feature.  [gauge_mm] DISCREPANCY: sources give 1,050 mm narrow gauge with an Abt rack section (opened 3 Aug 1895). The project system lists 1,435 mm — likely an error.  [countries] COUNTRY CORRECTIONS vs the project list: Yahfoufa is in LEBANON (as listed), but every station beyond it — Serghaya, Ain Hur, Zabadani, Madaya, El-Tekkieh, Souk Wadi Barada, Deir Qanoun, Ain el Fijeh, Achrafieh, Jdeideh, Al-Hama, Dummar and Damascus — is in SYRIA. The project list mislabels these Barada-gorge stations as Lebanon. 'Souk/Suk Wadi Barada' was also DUPLICATED in the list (once Lebanon, once Syria) — merged into one Syrian station.  [route] Ordered station chain + altitudes from the Beirut-Damascus Railway project site. Al-Dimas (Barada) added map-derived/unverified per GSGS 2061/9 (1916); approximate sequence position.",
    "history": "Opened to Beirut on 3 August 1895 at 1,050 mm gauge. From the coast the line climbed Mount Lebanon on Abt RACK sections to the summit at Dahr al-Baidar (~1,490 m, ~37 km from Beirut), descended to the Beqaa plain at Chtaura, and reached the junction at Rayak. From Rayak the Damascus branch climbed again to a summit around Serghaya/Ain Hur (~1,380 m) before descending the Barada gorge through Zabadani and Ain el Fijeh to Damascus (~700 m). The full trip initially took about 9 hours and terminated at Baramke, Qanawat and Midan stations in Damascus.",
    "verification_status": "unverified",
    "source_ids": [
      "bdr_project",
      "elhage_rizk_marmikhael_2023",
      "gsgs_2061_syria_1916",
      "gwr_lebanon",
      "levantrain_system",
      "os_near_east_railways_1919",
      "walling_beirut_2020",
      "wp_lebanon"
    ]
  },
  "features": [
    {
      "type": "Feature",
      "geometry": {
        "type": "LineString",
        "coordinates": [
          [
            35.52791,
            33.898471
          ],
          [
            35.5308,
            33.897786
          ],
          [
            35.532005,
            33.897253
          ],
          [
            35.532812,
            33.896724
          ],
          [
            35.533054,
            33.896441
          ],
          [
            35.533213,
            33.895773
          ],
          [
            35.53322,
            33.894836
          ],
          [
            35.533094,
            33.893833
          ],
          [
            35.532926,
            33.893352
          ],
          [
            35.53208,
            33.892195
          ],
          [
            35.531315,
            33.890273
          ],
          [
            35.531103,
            33.888677
          ],
          [
            35.531462,
            33.887597
          ],
          [
            35.531396,
            33.887022
          ],
          [
            35.531233,
            33.886575
          ],
          [
            35.530498,
            33.885963
          ],
          [
            35.528683,
            33.884915
          ],
          [
            35.52797,
            33.882978
          ],
          [
            35.527529,
            33.882196
          ],
          [
            35.527224,
            33.880836
          ],
          [
            35.526331,
            33.879793
          ],
          [
            35.525398,
            33.879092
          ],
          [
            35.525067,
            33.878509
          ],
          [
            35.525064,
            33.878008
          ],
          [
            35.525167,
            33.8778
          ],
          [
            35.525243,
            33.877013
          ],
          [
            35.524809,
            33.87641
          ],
          [
            35.524704,
            33.875924
          ],
          [
            35.524915,
            33.874622
          ],
          [
            35.525499,
            33.873717
          ],
          [
            35.525782,
            33.872824
          ],
          [
            35.526476,
            33.872157
          ]
        ]
      },
      "properties": {
        "route_id": "beirut-damascus",
        "sequence": 1,
        "from": "Beirut",
        "to": "Furn el Chebbak",
        "from_id": "beirut",
        "to_id": "furn-el-chebbak",
        "geometry_status": "surveyed",
        "geometry_source": "osm",
        "corridor_confidence": "high",
        "connection_status": "documented",
        "source_ids": [
          "osm"
        ]
      }
    },
    {
      "type": "Feature",
      "geometry": {
        "type": "LineString",
        "coordinates": [
          [
            35.526476,
            33.872157
          ],
          [
            35.527409,
            33.869017
          ],
          [
            35.527332,
            33.868521
          ],
          [
            35.526588,
            33.866493
          ],
          [
            35.526651,
            33.86617
          ],
          [
            35.528006,
            33.863253
          ],
          [
            35.528098,
            33.862512
          ],
          [
            35.527904,
            33.858469
          ],
          [
            35.528086,
            33.858155
          ],
          [
            35.530594,
            33.856753
          ],
          [
            35.531906,
            33.855654
          ],
          [
            35.532328,
            33.855137
          ],
          [
            35.533175,
            33.853603
          ],
          [
            35.533507,
            33.852597
          ],
          [
            35.533692,
            33.849275
          ],
          [
            35.532819,
            33.845819
          ],
          [
            35.532966,
            33.845194
          ],
          [
            35.533471,
            33.843985
          ],
          [
            35.533702,
            33.842313
          ],
          [
            35.534043,
            33.841627
          ],
          [
            35.534542,
            33.841121
          ],
          [
            35.5353,
            33.840801
          ],
          [
            35.535793,
            33.840354
          ],
          [
            35.535917,
            33.839957
          ],
          [
            35.535808,
            33.839445
          ],
          [
            35.535479,
            33.839036
          ],
          [
            35.534412,
            33.838339
          ],
          [
            35.533051,
            33.837867
          ],
          [
            35.532764,
            33.837573
          ],
          [
            35.532642,
            33.837135
          ],
          [
            35.532711,
            33.836769
          ],
          [
            35.53349,
            33.835665
          ],
          [
            35.533889,
            33.835316
          ],
          [
            35.534401,
            33.835107
          ],
          [
            35.535787,
            33.834997
          ],
          [
            35.536329,
            33.834787
          ]
        ]
      },
      "properties": {
        "route_id": "beirut-damascus",
        "sequence": 2,
        "from": "Furn el Chebbak",
        "to": "Hadath",
        "from_id": "furn-el-chebbak",
        "to_id": "hadath",
        "geometry_status": "surveyed",
        "geometry_source": "osm",
        "corridor_confidence": "high",
        "connection_status": "documented",
        "source_ids": [
          "osm"
        ]
      }
    },
    {
      "type": "Feature",
      "geometry": {
        "type": "LineString",
        "coordinates": [
          [
            35.536329,
            33.834787
          ],
          [
            35.539873,
            33.833213
          ],
          [
            35.540835,
            33.833117
          ],
          [
            35.541381,
            33.832906
          ]
        ]
      },
      "properties": {
        "route_id": "beirut-damascus",
        "sequence": 3,
        "from": "Hadath",
        "to": "Baabda",
        "from_id": "hadath",
        "to_id": "baabda",
        "geometry_status": "surveyed",
        "geometry_source": "osm",
        "corridor_confidence": "high",
        "connection_status": "documented",
        "source_ids": [
          "osm"
        ]
      }
    },
    {
      "type": "Feature",
      "geometry": {
        "type": "LineString",
        "coordinates": [
          [
            35.541381,
            33.832906
          ],
          [
            35.541665,
            33.832616
          ],
          [
            35.542042,
            33.83146
          ],
          [
            35.542254,
            33.831185
          ],
          [
            35.542957,
            33.830792
          ],
          [
            35.543978,
            33.829873
          ],
          [
            35.544436,
            33.829705
          ],
          [
            35.545314,
            33.829696
          ],
          [
            35.547218,
            33.830386
          ],
          [
            35.548822,
            33.830122
          ],
          [
            35.549951,
            33.829676
          ],
          [
            35.551087,
            33.829722
          ],
          [
            35.551872,
            33.830049
          ],
          [
            35.552394,
            33.830552
          ],
          [
            35.552784,
            33.831157
          ],
          [
            35.55306,
            33.83127
          ],
          [
            35.553728,
            33.831153
          ],
          [
            35.55494,
            33.83058
          ],
          [
            35.556691,
            33.830386
          ],
          [
            35.55748,
            33.830506
          ],
          [
            35.558656,
            33.8313
          ],
          [
            35.559026,
            33.831371
          ],
          [
            35.559382,
            33.831281
          ],
          [
            35.559883,
            33.830676
          ],
          [
            35.560312,
            33.830445
          ],
          [
            35.560833,
            33.830391
          ],
          [
            35.563438,
            33.83053
          ],
          [
            35.564575,
            33.830686
          ],
          [
            35.565099,
            33.830919
          ],
          [
            35.565788,
            33.831474
          ],
          [
            35.566206,
            33.831656
          ],
          [
            35.56655,
            33.831674
          ],
          [
            35.567247,
            33.831542
          ],
          [
            35.567651,
            33.831224
          ],
          [
            35.569283,
            33.830313
          ],
          [
            35.573133,
            33.82874
          ]
        ]
      },
      "properties": {
        "route_id": "beirut-damascus",
        "sequence": 4,
        "from": "Baabda",
        "to": "Jamhour",
        "from_id": "baabda",
        "to_id": "jamhour",
        "geometry_status": "surveyed",
        "geometry_source": "osm",
        "corridor_confidence": "high",
        "connection_status": "documented",
        "source_ids": [
          "osm"
        ]
      }
    },
    {
      "type": "Feature",
      "geometry": {
        "type": "LineString",
        "coordinates": [
          [
            35.57194,
            33.82861
          ],
          [
            35.589313,
            33.829115
          ]
        ]
      },
      "properties": {
        "route_id": "beirut-damascus",
        "sequence": 5,
        "from": "Jamhour",
        "to": "Aaraya",
        "from_id": "jamhour",
        "to_id": "aaraya",
        "geometry_status": "schematic",
        "geometry_source": "schematic",
        "corridor_confidence": "high",
        "connection_status": "documented"
      }
    },
    {
      "type": "Feature",
      "geometry": {
        "type": "LineString",
        "coordinates": [
          [
            35.59196,
            33.828777
          ],
          [
            35.591792,
            33.828114
          ],
          [
            35.591773,
            33.827536
          ],
          [
            35.592611,
            33.825945
          ],
          [
            35.592863,
            33.825075
          ],
          [
            35.593364,
            33.824466
          ],
          [
            35.594336,
            33.824105
          ],
          [
            35.596502,
            33.823778
          ],
          [
            35.597271,
            33.823494
          ],
          [
            35.598266,
            33.822733
          ],
          [
            35.5988,
            33.821872
          ],
          [
            35.599136,
            33.821674
          ],
          [
            35.599765,
            33.821513
          ],
          [
            35.600372,
            33.821561
          ],
          [
            35.601784,
            33.821312
          ],
          [
            35.603039,
            33.820118
          ],
          [
            35.605994,
            33.818348
          ],
          [
            35.606576,
            33.817706
          ],
          [
            35.606823,
            33.816594
          ],
          [
            35.607449,
            33.815719
          ],
          [
            35.607954,
            33.814562
          ],
          [
            35.608745,
            33.813207
          ],
          [
            35.608564,
            33.812731
          ],
          [
            35.607677,
            33.811585
          ],
          [
            35.60717,
            33.81117
          ],
          [
            35.606026,
            33.810598
          ],
          [
            35.607775,
            33.811398
          ],
          [
            35.610208,
            33.812187
          ],
          [
            35.611299,
            33.812403
          ]
        ]
      },
      "properties": {
        "route_id": "beirut-damascus",
        "sequence": 6,
        "from": "Aaraya",
        "to": "Aley",
        "from_id": "aaraya",
        "to_id": "aley",
        "geometry_status": "surveyed",
        "geometry_source": "osm",
        "corridor_confidence": "high",
        "connection_status": "documented",
        "source_ids": [
          "osm"
        ]
      }
    },
    {
      "type": "Feature",
      "geometry": {
        "type": "LineString",
        "coordinates": [
          [
            35.611299,
            33.812403
          ],
          [
            35.612166,
            33.812825
          ],
          [
            35.612859,
            33.813437
          ],
          [
            35.615249,
            33.814481
          ],
          [
            35.61627,
            33.814691
          ],
          [
            35.617626,
            33.814678
          ],
          [
            35.618236,
            33.814577
          ],
          [
            35.618828,
            33.814238
          ],
          [
            35.619157,
            33.813712
          ],
          [
            35.619459,
            33.812353
          ],
          [
            35.619767,
            33.811552
          ],
          [
            35.620097,
            33.811257
          ],
          [
            35.621413,
            33.810848
          ],
          [
            35.621581,
            33.810668
          ],
          [
            35.621854,
            33.808992
          ],
          [
            35.62256,
            33.807833
          ],
          [
            35.623106,
            33.807589
          ],
          [
            35.623526,
            33.807554
          ],
          [
            35.623981,
            33.807668
          ],
          [
            35.625895,
            33.808471
          ],
          [
            35.627379,
            33.808913
          ],
          [
            35.628172,
            33.808946
          ],
          [
            35.629042,
            33.808819
          ],
          [
            35.630044,
            33.80848
          ],
          [
            35.633791,
            33.80837
          ],
          [
            35.634463,
            33.808178
          ],
          [
            35.63503,
            33.807722
          ],
          [
            35.63548,
            33.807026
          ],
          [
            35.636188,
            33.80632
          ],
          [
            35.639597,
            33.805107
          ],
          [
            35.640591,
            33.804975
          ],
          [
            35.64198,
            33.805029
          ],
          [
            35.643811,
            33.805328
          ],
          [
            35.646698,
            33.806142
          ],
          [
            35.651398,
            33.80704
          ],
          [
            35.653541,
            33.80698
          ],
          [
            35.656114,
            33.807081
          ]
        ]
      },
      "properties": {
        "route_id": "beirut-damascus",
        "sequence": 7,
        "from": "Aley",
        "to": "Bhamdoun",
        "from_id": "aley",
        "to_id": "bhamdoun",
        "geometry_status": "surveyed",
        "geometry_source": "osm",
        "corridor_confidence": "high",
        "connection_status": "documented",
        "source_ids": [
          "osm"
        ]
      }
    },
    {
      "type": "Feature",
      "geometry": {
        "type": "LineString",
        "coordinates": [
          [
            35.656114,
            33.807081
          ],
          [
            35.659178,
            33.807007
          ],
          [
            35.659918,
            33.80693
          ],
          [
            35.661064,
            33.806602
          ],
          [
            35.662265,
            33.80598
          ],
          [
            35.663215,
            33.805077
          ],
          [
            35.665193,
            33.80456
          ],
          [
            35.666557,
            33.803564
          ],
          [
            35.667067,
            33.802722
          ],
          [
            35.667821,
            33.802002
          ],
          [
            35.668804,
            33.801768
          ],
          [
            35.670454,
            33.802069
          ],
          [
            35.671925,
            33.802008
          ],
          [
            35.672235,
            33.80189
          ],
          [
            35.67393,
            33.802055
          ],
          [
            35.674711,
            33.802465
          ],
          [
            35.676319,
            33.803093
          ],
          [
            35.677402,
            33.804188
          ],
          [
            35.678847,
            33.804714
          ],
          [
            35.680098,
            33.804503
          ],
          [
            35.681456,
            33.804523
          ],
          [
            35.681972,
            33.804367
          ],
          [
            35.682591,
            33.803958
          ],
          [
            35.683704,
            33.803499
          ],
          [
            35.684482,
            33.802923
          ],
          [
            35.685017,
            33.802703
          ],
          [
            35.687327,
            33.802346
          ],
          [
            35.688686,
            33.802579
          ],
          [
            35.691293,
            33.802651
          ],
          [
            35.69241,
            33.802866
          ],
          [
            35.693312,
            33.802758
          ],
          [
            35.696701,
            33.802817
          ],
          [
            35.698183,
            33.802934
          ],
          [
            35.701422,
            33.803891
          ]
        ]
      },
      "properties": {
        "route_id": "beirut-damascus",
        "sequence": 8,
        "from": "Bhamdoun",
        "to": "Sofar",
        "from_id": "bhamdoun",
        "to_id": "sofar",
        "geometry_status": "surveyed",
        "geometry_source": "osm",
        "corridor_confidence": "high",
        "connection_status": "documented",
        "source_ids": [
          "osm"
        ]
      }
    },
    {
      "type": "Feature",
      "geometry": {
        "type": "LineString",
        "coordinates": [
          [
            35.701422,
            33.803891
          ],
          [
            35.702279,
            33.80432
          ],
          [
            35.703074,
            33.805161
          ],
          [
            35.704047,
            33.805736
          ],
          [
            35.705162,
            33.806017
          ],
          [
            35.706142,
            33.806534
          ],
          [
            35.707674,
            33.806588
          ],
          [
            35.708477,
            33.806391
          ],
          [
            35.70892,
            33.80641
          ],
          [
            35.709684,
            33.806647
          ],
          [
            35.710871,
            33.806717
          ],
          [
            35.712059,
            33.806985
          ],
          [
            35.712552,
            33.806878
          ],
          [
            35.712863,
            33.806673
          ],
          [
            35.713513,
            33.805858
          ],
          [
            35.713749,
            33.805687
          ],
          [
            35.716705,
            33.804984
          ],
          [
            35.717526,
            33.804492
          ],
          [
            35.718252,
            33.804345
          ],
          [
            35.719923,
            33.804281
          ],
          [
            35.721116,
            33.804086
          ],
          [
            35.722286,
            33.803526
          ],
          [
            35.724555,
            33.803046
          ],
          [
            35.726778,
            33.802974
          ],
          [
            35.727866,
            33.802725
          ],
          [
            35.728238,
            33.802375
          ],
          [
            35.728876,
            33.800922
          ],
          [
            35.728475,
            33.799447
          ],
          [
            35.72847,
            33.799116
          ],
          [
            35.728632,
            33.79867
          ],
          [
            35.729216,
            33.798159
          ],
          [
            35.729611,
            33.79806
          ],
          [
            35.731325,
            33.79812
          ],
          [
            35.732941,
            33.798698
          ],
          [
            35.735034,
            33.799106
          ],
          [
            35.737185,
            33.799275
          ],
          [
            35.738308,
            33.79975
          ],
          [
            35.739456,
            33.799675
          ],
          [
            35.740034,
            33.799755
          ],
          [
            35.741049,
            33.800292
          ],
          [
            35.742157,
            33.800643
          ],
          [
            35.743411,
            33.800676
          ],
          [
            35.745021,
            33.80149
          ],
          [
            35.745369,
            33.801856
          ],
          [
            35.74563,
            33.803233
          ],
          [
            35.746059,
            33.803588
          ],
          [
            35.746775,
            33.803692
          ],
          [
            35.748148,
            33.802984
          ],
          [
            35.748582,
            33.802929
          ],
          [
            35.749007,
            33.803023
          ],
          [
            35.750309,
            33.803827
          ],
          [
            35.75274,
            33.804768
          ],
          [
            35.753486,
            33.805421
          ],
          [
            35.753993,
            33.806437
          ],
          [
            35.755214,
            33.807164
          ],
          [
            35.756359,
            33.808015
          ],
          [
            35.758158,
            33.808323
          ],
          [
            35.759349,
            33.809005
          ],
          [
            35.760749,
            33.810138
          ],
          [
            35.761985,
            33.81038
          ]
        ]
      },
      "properties": {
        "route_id": "beirut-damascus",
        "sequence": 9,
        "from": "Sofar",
        "to": "Dahr el Baidar",
        "from_id": "sofar",
        "to_id": "dahr-el-baidar",
        "geometry_status": "surveyed",
        "geometry_source": "osm",
        "corridor_confidence": "high",
        "connection_status": "documented",
        "source_ids": [
          "osm"
        ]
      }
    },
    {
      "type": "Feature",
      "geometry": {
        "type": "LineString",
        "coordinates": [
          [
            35.761985,
            33.81038
          ],
          [
            35.761776,
            33.810383
          ],
          [
            35.764143,
            33.809687
          ],
          [
            35.764489,
            33.809455
          ],
          [
            35.765468,
            33.809163
          ],
          [
            35.766199,
            33.809026
          ],
          [
            35.766851,
            33.809125
          ],
          [
            35.76742,
            33.809376
          ],
          [
            35.768275,
            33.810076
          ],
          [
            35.768906,
            33.810354
          ],
          [
            35.770084,
            33.811248
          ],
          [
            35.770595,
            33.811423
          ],
          [
            35.772863,
            33.811274
          ],
          [
            35.77576,
            33.811909
          ],
          [
            35.776694,
            33.811829
          ],
          [
            35.77711,
            33.811915
          ],
          [
            35.777543,
            33.812121
          ],
          [
            35.777956,
            33.812626
          ],
          [
            35.778415,
            33.813737
          ],
          [
            35.778685,
            33.814012
          ],
          [
            35.779029,
            33.81419
          ],
          [
            35.77954,
            33.814224
          ],
          [
            35.780999,
            33.8137
          ],
          [
            35.781342,
            33.813421
          ],
          [
            35.782209,
            33.811756
          ],
          [
            35.782239,
            33.81087
          ],
          [
            35.782574,
            33.80982
          ],
          [
            35.783256,
            33.808843
          ],
          [
            35.784069,
            33.808661
          ],
          [
            35.785302,
            33.808566
          ],
          [
            35.787074,
            33.808055
          ],
          [
            35.787698,
            33.807832
          ],
          [
            35.788491,
            33.807384
          ],
          [
            35.788896,
            33.806898
          ],
          [
            35.789313,
            33.806597
          ],
          [
            35.790465,
            33.806475
          ],
          [
            35.791423,
            33.806205
          ],
          [
            35.791826,
            33.80616
          ],
          [
            35.792302,
            33.806299
          ],
          [
            35.793335,
            33.806981
          ],
          [
            35.793832,
            33.807033
          ],
          [
            35.794393,
            33.806924
          ],
          [
            35.796709,
            33.805622
          ],
          [
            35.797401,
            33.805524
          ],
          [
            35.798494,
            33.805884
          ],
          [
            35.799006,
            33.805939
          ],
          [
            35.799617,
            33.805773
          ],
          [
            35.800646,
            33.805269
          ],
          [
            35.802051,
            33.805257
          ],
          [
            35.803638,
            33.804765
          ],
          [
            35.804015,
            33.804728
          ],
          [
            35.805522,
            33.805099
          ],
          [
            35.806177,
            33.804987
          ],
          [
            35.80774,
            33.805197
          ],
          [
            35.808404,
            33.805148
          ],
          [
            35.809659,
            33.804717
          ],
          [
            35.810309,
            33.804818
          ],
          [
            35.810661,
            33.805009
          ],
          [
            35.812726,
            33.806948
          ],
          [
            35.813387,
            33.807312
          ],
          [
            35.814008,
            33.807806
          ],
          [
            35.814748,
            33.808587
          ]
        ]
      },
      "properties": {
        "route_id": "beirut-damascus",
        "sequence": 10,
        "from": "Dahr el Baidar",
        "to": "Mreijat",
        "from_id": "dahr-el-baidar",
        "to_id": "mreijat",
        "geometry_status": "surveyed",
        "geometry_source": "osm",
        "corridor_confidence": "high",
        "connection_status": "documented",
        "source_ids": [
          "osm"
        ]
      }
    },
    {
      "type": "Feature",
      "geometry": {
        "type": "LineString",
        "coordinates": [
          [
            35.814748,
            33.808587
          ],
          [
            35.815766,
            33.809781
          ],
          [
            35.816232,
            33.810971
          ],
          [
            35.816629,
            33.811299
          ],
          [
            35.818046,
            33.81158
          ],
          [
            35.818859,
            33.812025
          ],
          [
            35.819989,
            33.81221
          ],
          [
            35.820537,
            33.812426
          ],
          [
            35.82188,
            33.813463
          ],
          [
            35.823479,
            33.813995
          ],
          [
            35.824108,
            33.814566
          ],
          [
            35.824081,
            33.815157
          ],
          [
            35.823758,
            33.815733
          ],
          [
            35.82342,
            33.816074
          ],
          [
            35.82327,
            33.816472
          ],
          [
            35.823337,
            33.816929
          ],
          [
            35.823655,
            33.817351
          ],
          [
            35.824481,
            33.817772
          ],
          [
            35.825598,
            33.817857
          ],
          [
            35.82599,
            33.818019
          ],
          [
            35.826368,
            33.818313
          ],
          [
            35.826573,
            33.818725
          ],
          [
            35.826601,
            33.819166
          ],
          [
            35.826755,
            33.819618
          ],
          [
            35.827075,
            33.81993
          ],
          [
            35.828281,
            33.820414
          ],
          [
            35.828594,
            33.820775
          ],
          [
            35.828941,
            33.821382
          ],
          [
            35.829628,
            33.822124
          ],
          [
            35.83037,
            33.823382
          ],
          [
            35.830406,
            33.823682
          ],
          [
            35.830174,
            33.824998
          ],
          [
            35.83076,
            33.825772
          ],
          [
            35.83192,
            33.826424
          ],
          [
            35.832864,
            33.827316
          ],
          [
            35.834486,
            33.827965
          ],
          [
            35.837012,
            33.828511
          ],
          [
            35.837515,
            33.828743
          ],
          [
            35.83803,
            33.829245
          ],
          [
            35.838422,
            33.830099
          ],
          [
            35.838916,
            33.830377
          ],
          [
            35.840857,
            33.830748
          ],
          [
            35.842653,
            33.830915
          ],
          [
            35.843133,
            33.830803
          ],
          [
            35.844655,
            33.829763
          ],
          [
            35.845435,
            33.829343
          ],
          [
            35.846082,
            33.829193
          ],
          [
            35.847118,
            33.828548
          ],
          [
            35.847382,
            33.828491
          ],
          [
            35.848764,
            33.828611
          ],
          [
            35.849324,
            33.828389
          ],
          [
            35.850295,
            33.827618
          ],
          [
            35.850907,
            33.827519
          ],
          [
            35.851683,
            33.827675
          ],
          [
            35.853506,
            33.82856
          ],
          [
            35.853899,
            33.828575
          ],
          [
            35.854413,
            33.828427
          ],
          [
            35.854774,
            33.828164
          ],
          [
            35.855204,
            33.827657
          ],
          [
            35.855758,
            33.826366
          ],
          [
            35.856472,
            33.82559
          ],
          [
            35.857398,
            33.824882
          ],
          [
            35.858013,
            33.82457
          ],
          [
            35.858872,
            33.824328
          ]
        ]
      },
      "properties": {
        "route_id": "beirut-damascus",
        "sequence": 11,
        "from": "Mreijat",
        "to": "Chtaura",
        "from_id": "mreijat",
        "to_id": "chtaura",
        "geometry_status": "partial",
        "geometry_source": "osm",
        "corridor_confidence": "high",
        "connection_status": "documented",
        "source_ids": [
          "osm"
        ]
      }
    },
    {
      "type": "Feature",
      "geometry": {
        "type": "LineString",
        "coordinates": [
          [
            35.858872,
            33.824328
          ],
          [
            35.859732,
            33.824349
          ],
          [
            35.860711,
            33.825145
          ],
          [
            35.862445,
            33.825281
          ],
          [
            35.863015,
            33.825022
          ],
          [
            35.865608,
            33.822814
          ],
          [
            35.8664,
            33.822421
          ],
          [
            35.867632,
            33.822526
          ],
          [
            35.868172,
            33.822308
          ],
          [
            35.868612,
            33.821917
          ],
          [
            35.869272,
            33.821599
          ],
          [
            35.870606,
            33.821456
          ],
          [
            35.872126,
            33.820887
          ],
          [
            35.872755,
            33.820886
          ],
          [
            35.873287,
            33.82118
          ],
          [
            35.87361,
            33.821462
          ],
          [
            35.873805,
            33.822416
          ],
          [
            35.873963,
            33.822696
          ],
          [
            35.874661,
            33.823157
          ],
          [
            35.875273,
            33.823239
          ],
          [
            35.876051,
            33.822955
          ],
          [
            35.8768,
            33.822085
          ],
          [
            35.877541,
            33.821595
          ],
          [
            35.878087,
            33.821446
          ],
          [
            35.882012,
            33.820911
          ],
          [
            35.882527,
            33.820954
          ],
          [
            35.882874,
            33.820815
          ]
        ]
      },
      "properties": {
        "route_id": "beirut-damascus",
        "sequence": 12,
        "from": "Chtaura",
        "to": "Saadnayel",
        "from_id": "chtaura",
        "to_id": "saadnayel",
        "geometry_status": "surveyed",
        "geometry_source": "osm",
        "corridor_confidence": "medium",
        "connection_status": "inferred",
        "source_ids": [
          "osm"
        ]
      }
    },
    {
      "type": "Feature",
      "geometry": {
        "type": "LineString",
        "coordinates": [
          [
            35.882874,
            33.820815
          ],
          [
            35.888884,
            33.821492
          ],
          [
            35.889533,
            33.821694
          ],
          [
            35.89001,
            33.821964
          ],
          [
            35.890472,
            33.822262
          ],
          [
            35.891417,
            33.823255
          ],
          [
            35.900994,
            33.831211
          ]
        ]
      },
      "properties": {
        "route_id": "beirut-damascus",
        "sequence": 13,
        "from": "Saadnayel",
        "to": "Maalaka",
        "from_id": "saadnayel",
        "to_id": "maalaka",
        "geometry_status": "surveyed",
        "geometry_source": "osm",
        "corridor_confidence": "medium",
        "connection_status": "inferred",
        "source_ids": [
          "osm"
        ]
      }
    },
    {
      "type": "Feature",
      "geometry": {
        "type": "LineString",
        "coordinates": [
          [
            35.900994,
            33.831211
          ],
          [
            35.902757,
            33.832308
          ],
          [
            35.904654,
            33.833864
          ],
          [
            35.907185,
            33.834903
          ],
          [
            35.912788,
            33.837446
          ],
          [
            35.913969,
            33.838238
          ],
          [
            35.915264,
            33.8393
          ],
          [
            35.91575,
            33.839483
          ],
          [
            35.916297,
            33.839935
          ],
          [
            35.917403,
            33.840988
          ],
          [
            35.918326,
            33.842083
          ],
          [
            35.919294,
            33.843049
          ],
          [
            35.92033,
            33.843496
          ],
          [
            35.922954,
            33.843392
          ],
          [
            35.93405,
            33.84213
          ],
          [
            35.972631,
            33.846609
          ],
          [
            35.973261,
            33.846919
          ],
          [
            35.978232,
            33.850014
          ],
          [
            35.984612,
            33.854379
          ],
          [
            35.988878,
            33.858375
          ],
          [
            35.989368,
            33.858719
          ],
          [
            36.000383,
            33.864257
          ],
          [
            36.002128,
            33.86505
          ],
          [
            36.003029,
            33.86528
          ],
          [
            36.004015,
            33.865203
          ],
          [
            36.004733,
            33.864906
          ],
          [
            36.005526,
            33.864256
          ],
          [
            36.005922,
            33.863558
          ],
          [
            36.005594,
            33.853945
          ],
          [
            36.005645,
            33.853178
          ],
          [
            36.005843,
            33.852571
          ],
          [
            36.006135,
            33.85209
          ],
          [
            36.006618,
            33.851584
          ],
          [
            36.007191,
            33.85124
          ],
          [
            36.007812,
            33.850984
          ],
          [
            36.008373,
            33.850893
          ],
          [
            36.010774,
            33.851038
          ],
          [
            36.010648,
            33.851178
          ],
          [
            36.011924,
            33.851509
          ]
        ]
      },
      "properties": {
        "route_id": "beirut-damascus",
        "sequence": 14,
        "from": "Maalaka",
        "to": "Rayak",
        "from_id": "maalaka",
        "to_id": "rayak",
        "geometry_status": "surveyed",
        "geometry_source": "osm",
        "corridor_confidence": "high",
        "connection_status": "documented",
        "source_ids": [
          "osm"
        ]
      }
    },
    {
      "type": "Feature",
      "geometry": {
        "type": "LineString",
        "coordinates": [
          [
            36.011924,
            33.851509
          ],
          [
            36.014129,
            33.851789
          ],
          [
            36.015159,
            33.851638
          ],
          [
            36.014976,
            33.851338
          ],
          [
            36.016003,
            33.85166
          ],
          [
            36.024046,
            33.852716
          ],
          [
            36.037592,
            33.854304
          ],
          [
            36.039832,
            33.855067
          ],
          [
            36.040439,
            33.855391
          ],
          [
            36.041831,
            33.856493
          ],
          [
            36.043273,
            33.857273
          ],
          [
            36.044098,
            33.857345
          ],
          [
            36.04486,
            33.857198
          ],
          [
            36.045257,
            33.857233
          ],
          [
            36.046117,
            33.857613
          ],
          [
            36.049916,
            33.858108
          ],
          [
            36.052991,
            33.857432
          ],
          [
            36.053576,
            33.85743
          ],
          [
            36.057521,
            33.85839
          ],
          [
            36.059239,
            33.85807
          ],
          [
            36.059929,
            33.857672
          ],
          [
            36.060351,
            33.857569
          ],
          [
            36.06079,
            33.857601
          ],
          [
            36.062027,
            33.858114
          ],
          [
            36.064559,
            33.857361
          ],
          [
            36.065762,
            33.857131
          ],
          [
            36.068382,
            33.856346
          ],
          [
            36.069464,
            33.855894
          ],
          [
            36.069976,
            33.855813
          ],
          [
            36.070542,
            33.855846
          ],
          [
            36.073502,
            33.856493
          ],
          [
            36.074912,
            33.857083
          ],
          [
            36.076339,
            33.857458
          ],
          [
            36.076747,
            33.857475
          ],
          [
            36.077607,
            33.85721
          ],
          [
            36.078088,
            33.856918
          ],
          [
            36.078615,
            33.856288
          ],
          [
            36.078903,
            33.855306
          ],
          [
            36.079402,
            33.854896
          ],
          [
            36.081695,
            33.854453
          ],
          [
            36.083267,
            33.854363
          ],
          [
            36.086152,
            33.854415
          ],
          [
            36.087673,
            33.854233
          ],
          [
            36.088937,
            33.854349
          ],
          [
            36.089528,
            33.854584
          ],
          [
            36.090242,
            33.855043
          ],
          [
            36.091772,
            33.856477
          ],
          [
            36.092081,
            33.856628
          ],
          [
            36.092614,
            33.856717
          ],
          [
            36.093246,
            33.856675
          ],
          [
            36.094659,
            33.856337
          ],
          [
            36.096491,
            33.856431
          ],
          [
            36.09762,
            33.856742
          ],
          [
            36.098133,
            33.856777
          ],
          [
            36.098694,
            33.856631
          ],
          [
            36.099484,
            33.856228
          ],
          [
            36.100272,
            33.856063
          ],
          [
            36.101887,
            33.856217
          ],
          [
            36.102196,
            33.856361
          ],
          [
            36.103047,
            33.857034
          ],
          [
            36.10369,
            33.857134
          ],
          [
            36.105355,
            33.856492
          ],
          [
            36.106583,
            33.855743
          ],
          [
            36.107279,
            33.85567
          ],
          [
            36.108611,
            33.856077
          ],
          [
            36.109226,
            33.856508
          ],
          [
            36.10963,
            33.857533
          ],
          [
            36.109635,
            33.859297
          ],
          [
            36.109853,
            33.85962
          ],
          [
            36.110679,
            33.860175
          ],
          [
            36.110915,
            33.860451
          ],
          [
            36.110985,
            33.860834
          ],
          [
            36.110942,
            33.861787
          ],
          [
            36.111264,
            33.86242
          ],
          [
            36.112105,
            33.862859
          ],
          [
            36.113826,
            33.863046
          ],
          [
            36.115748,
            33.863952
          ],
          [
            36.116255,
            33.864037
          ],
          [
            36.118342,
            33.86391
          ],
          [
            36.118905,
            33.863765
          ],
          [
            36.121566,
            33.861952
          ],
          [
            36.121813,
            33.861669
          ],
          [
            36.122012,
            33.861222
          ],
          [
            36.121912,
            33.85949
          ],
          [
            36.122207,
            33.859012
          ],
          [
            36.122532,
            33.858798
          ],
          [
            36.123411,
            33.858812
          ],
          [
            36.126243,
            33.859128
          ],
          [
            36.127702,
            33.858894
          ],
          [
            36.129315,
            33.859195
          ],
          [
            36.13244,
            33.858693
          ]
        ]
      },
      "properties": {
        "route_id": "beirut-damascus",
        "sequence": 15,
        "from": "Rayak",
        "to": "Yahfoufa",
        "from_id": "rayak",
        "to_id": "yahfoufa",
        "geometry_status": "surveyed",
        "geometry_source": "osm",
        "corridor_confidence": "medium",
        "connection_status": "inferred",
        "source_ids": [
          "osm"
        ]
      }
    },
    {
      "type": "Feature",
      "geometry": {
        "type": "LineString",
        "coordinates": [
          [
            36.13244,
            33.858693
          ],
          [
            36.132838,
            33.858811
          ],
          [
            36.133824,
            33.859354
          ],
          [
            36.134258,
            33.859415
          ],
          [
            36.134842,
            33.859344
          ],
          [
            36.135362,
            33.85904
          ],
          [
            36.136782,
            33.857832
          ],
          [
            36.136971,
            33.857519
          ],
          [
            36.137471,
            33.855962
          ],
          [
            36.137853,
            33.8556
          ],
          [
            36.138429,
            33.855454
          ],
          [
            36.139449,
            33.855533
          ],
          [
            36.140305,
            33.855486
          ],
          [
            36.141521,
            33.855276
          ],
          [
            36.142059,
            33.855044
          ],
          [
            36.142522,
            33.85447
          ],
          [
            36.142613,
            33.854033
          ],
          [
            36.14254,
            33.853712
          ],
          [
            36.14197,
            33.853035
          ],
          [
            36.141941,
            33.852621
          ],
          [
            36.142128,
            33.852243
          ],
          [
            36.142758,
            33.851853
          ],
          [
            36.143334,
            33.851654
          ],
          [
            36.143777,
            33.851661
          ],
          [
            36.145009,
            33.852238
          ],
          [
            36.145434,
            33.85227
          ],
          [
            36.145957,
            33.852113
          ],
          [
            36.146364,
            33.8518
          ],
          [
            36.147615,
            33.851359
          ],
          [
            36.147967,
            33.851356
          ],
          [
            36.149302,
            33.851708
          ],
          [
            36.150982,
            33.851089
          ],
          [
            36.152129,
            33.85105
          ],
          [
            36.152475,
            33.850892
          ],
          [
            36.153009,
            33.850256
          ],
          [
            36.152964,
            33.849314
          ],
          [
            36.153044,
            33.849042
          ],
          [
            36.153727,
            33.848361
          ],
          [
            36.153895,
            33.847985
          ],
          [
            36.153795,
            33.847479
          ],
          [
            36.152706,
            33.846392
          ],
          [
            36.152555,
            33.845981
          ],
          [
            36.152679,
            33.845416
          ],
          [
            36.153539,
            33.84482
          ]
        ]
      },
      "properties": {
        "route_id": "beirut-damascus",
        "sequence": 16,
        "from": "Yahfoufa",
        "to": "Jisr el-Remman",
        "from_id": "yahfoufa",
        "to_id": "jisr-el-remman",
        "geometry_status": "surveyed",
        "geometry_source": "osm",
        "corridor_confidence": "medium",
        "connection_status": "inferred",
        "source_ids": [
          "osm"
        ]
      }
    },
    {
      "type": "Feature",
      "geometry": {
        "type": "LineString",
        "coordinates": [
          [
            36.153539,
            33.84482
          ],
          [
            36.155397,
            33.844181
          ],
          [
            36.155893,
            33.843773
          ],
          [
            36.155998,
            33.843421
          ],
          [
            36.156003,
            33.842511
          ],
          [
            36.156397,
            33.841715
          ],
          [
            36.156411,
            33.840584
          ],
          [
            36.15669,
            33.840244
          ],
          [
            36.157277,
            33.839931
          ],
          [
            36.157584,
            33.83964
          ],
          [
            36.157727,
            33.839396
          ],
          [
            36.157899,
            33.838581
          ],
          [
            36.158139,
            33.838264
          ],
          [
            36.158671,
            33.838
          ],
          [
            36.160461,
            33.837612
          ],
          [
            36.161898,
            33.836799
          ],
          [
            36.163813,
            33.836366
          ],
          [
            36.165098,
            33.835513
          ],
          [
            36.1663,
            33.835039
          ],
          [
            36.166551,
            33.834789
          ],
          [
            36.166685,
            33.834429
          ],
          [
            36.166665,
            33.834096
          ],
          [
            36.16653,
            33.8339
          ],
          [
            36.165619,
            33.833238
          ],
          [
            36.165402,
            33.832886
          ],
          [
            36.165366,
            33.832346
          ],
          [
            36.165624,
            33.831209
          ],
          [
            36.165623,
            33.830855
          ],
          [
            36.165211,
            33.829544
          ],
          [
            36.165065,
            33.828657
          ],
          [
            36.164551,
            33.82741
          ],
          [
            36.164614,
            33.826403
          ],
          [
            36.164352,
            33.825658
          ],
          [
            36.16236,
            33.823111
          ],
          [
            36.16177,
            33.821983
          ],
          [
            36.161539,
            33.821731
          ],
          [
            36.15909,
            33.820052
          ],
          [
            36.157445,
            33.819201
          ],
          [
            36.157015,
            33.818679
          ],
          [
            36.156873,
            33.818311
          ],
          [
            36.156813,
            33.817699
          ],
          [
            36.157333,
            33.816426
          ],
          [
            36.157415,
            33.815824
          ],
          [
            36.155935,
            33.812169
          ],
          [
            36.15961,
            33.81164
          ]
        ]
      },
      "properties": {
        "route_id": "beirut-damascus",
        "sequence": 17,
        "from": "Jisr el-Remman",
        "to": "Serghaya",
        "from_id": "jisr-el-remman",
        "to_id": "serghaya",
        "geometry_status": "partial",
        "geometry_source": "osm",
        "corridor_confidence": "medium",
        "connection_status": "inferred",
        "source_ids": [
          "osm"
        ]
      }
    },
    {
      "type": "Feature",
      "geometry": {
        "type": "LineString",
        "coordinates": [
          [
            36.155935,
            33.812169
          ],
          [
            36.155617,
            33.81166
          ],
          [
            36.154254,
            33.810048
          ],
          [
            36.153501,
            33.809543
          ],
          [
            36.152634,
            33.809393
          ],
          [
            36.149695,
            33.809321
          ],
          [
            36.149076,
            33.809202
          ],
          [
            36.148488,
            33.808914
          ],
          [
            36.144792,
            33.805136
          ],
          [
            36.144099,
            33.804255
          ],
          [
            36.143535,
            33.803275
          ],
          [
            36.136673,
            33.785554
          ],
          [
            36.136301,
            33.783787
          ],
          [
            36.136337,
            33.782181
          ],
          [
            36.136773,
            33.780448
          ],
          [
            36.138188,
            33.777242
          ],
          [
            36.138313,
            33.776706
          ],
          [
            36.138293,
            33.775855
          ],
          [
            36.136986,
            33.772672
          ],
          [
            36.136148,
            33.77153
          ]
        ]
      },
      "properties": {
        "route_id": "beirut-damascus",
        "sequence": 18,
        "from": "Serghaya",
        "to": "Ain Hur",
        "from_id": "serghaya",
        "to_id": "ain-hur",
        "geometry_status": "surveyed",
        "geometry_source": "osm",
        "corridor_confidence": "medium",
        "connection_status": "inferred",
        "source_ids": [
          "osm"
        ]
      }
    },
    {
      "type": "Feature",
      "geometry": {
        "type": "LineString",
        "coordinates": [
          [
            36.136148,
            33.77153
          ],
          [
            36.135465,
            33.770867
          ],
          [
            36.134205,
            33.770228
          ],
          [
            36.132796,
            33.769736
          ],
          [
            36.131662,
            33.769138
          ],
          [
            36.131033,
            33.76817
          ],
          [
            36.129948,
            33.764548
          ],
          [
            36.130025,
            33.762389
          ],
          [
            36.129741,
            33.760717
          ],
          [
            36.129791,
            33.759778
          ],
          [
            36.128177,
            33.755753
          ],
          [
            36.127255,
            33.754275
          ],
          [
            36.124264,
            33.752055
          ],
          [
            36.123861,
            33.75151
          ],
          [
            36.123257,
            33.749674
          ],
          [
            36.122379,
            33.748478
          ],
          [
            36.122171,
            33.747402
          ],
          [
            36.120815,
            33.745147
          ],
          [
            36.120524,
            33.743206
          ],
          [
            36.120267,
            33.742835
          ],
          [
            36.119295,
            33.742056
          ],
          [
            36.1182,
            33.741695
          ],
          [
            36.117198,
            33.741155
          ],
          [
            36.115923,
            33.740948
          ],
          [
            36.115025,
            33.741057
          ],
          [
            36.113431,
            33.740966
          ],
          [
            36.112921,
            33.74084
          ],
          [
            36.112315,
            33.74032
          ],
          [
            36.111375,
            33.739241
          ],
          [
            36.1108,
            33.738774
          ],
          [
            36.109153,
            33.737993
          ],
          [
            36.108812,
            33.737583
          ],
          [
            36.108578,
            33.737113
          ],
          [
            36.106876,
            33.735556
          ],
          [
            36.106658,
            33.735231
          ],
          [
            36.106569,
            33.733897
          ],
          [
            36.106346,
            33.733347
          ],
          [
            36.104809,
            33.732166
          ],
          [
            36.10387,
            33.73073
          ],
          [
            36.103777,
            33.729596
          ],
          [
            36.103113,
            33.728672
          ],
          [
            36.103499,
            33.725306
          ]
        ]
      },
      "properties": {
        "route_id": "beirut-damascus",
        "sequence": 19,
        "from": "Ain Hur",
        "to": "Zabadani",
        "from_id": "ain-hur",
        "to_id": "zabadani",
        "geometry_status": "surveyed",
        "geometry_source": "osm",
        "corridor_confidence": "medium",
        "connection_status": "inferred",
        "source_ids": [
          "osm"
        ]
      }
    },
    {
      "type": "Feature",
      "geometry": {
        "type": "LineString",
        "coordinates": [
          [
            36.103499,
            33.725306
          ],
          [
            36.103605,
            33.725015
          ],
          [
            36.103954,
            33.724676
          ],
          [
            36.105571,
            33.723984
          ],
          [
            36.105871,
            33.723735
          ],
          [
            36.106134,
            33.723209
          ],
          [
            36.1059,
            33.722097
          ],
          [
            36.105957,
            33.721637
          ],
          [
            36.106113,
            33.721399
          ],
          [
            36.107124,
            33.720863
          ],
          [
            36.107891,
            33.720044
          ],
          [
            36.108378,
            33.719741
          ],
          [
            36.10902,
            33.719092
          ],
          [
            36.109004,
            33.718237
          ],
          [
            36.109239,
            33.717647
          ],
          [
            36.109269,
            33.717327
          ],
          [
            36.10911,
            33.716353
          ],
          [
            36.109525,
            33.714453
          ],
          [
            36.109407,
            33.714015
          ],
          [
            36.108005,
            33.712214
          ],
          [
            36.107816,
            33.710982
          ],
          [
            36.108138,
            33.709784
          ],
          [
            36.108106,
            33.709335
          ],
          [
            36.10681,
            33.70668
          ],
          [
            36.106512,
            33.70637
          ],
          [
            36.106033,
            33.70612
          ],
          [
            36.104364,
            33.705922
          ],
          [
            36.101468,
            33.704035
          ],
          [
            36.100808,
            33.703703
          ],
          [
            36.099648,
            33.7033
          ]
        ]
      },
      "properties": {
        "route_id": "beirut-damascus",
        "sequence": 20,
        "from": "Zabadani",
        "to": "Madaya",
        "from_id": "zabadani",
        "to_id": "madaya",
        "geometry_status": "surveyed",
        "geometry_source": "osm",
        "corridor_confidence": "medium",
        "connection_status": "inferred",
        "source_ids": [
          "osm"
        ]
      }
    },
    {
      "type": "Feature",
      "geometry": {
        "type": "LineString",
        "coordinates": [
          [
            36.099648,
            33.7033
          ],
          [
            36.096439,
            33.702647
          ],
          [
            36.094957,
            33.702069
          ],
          [
            36.093821,
            33.701486
          ],
          [
            36.088149,
            33.697719
          ],
          [
            36.087438,
            33.696992
          ],
          [
            36.086914,
            33.696183
          ],
          [
            36.085479,
            33.693074
          ],
          [
            36.078556,
            33.677037
          ],
          [
            36.077236,
            33.67499
          ],
          [
            36.076804,
            33.674113
          ],
          [
            36.075798,
            33.671331
          ],
          [
            36.0748,
            33.667992
          ],
          [
            36.074752,
            33.667157
          ],
          [
            36.075734,
            33.662976
          ],
          [
            36.075789,
            33.662338
          ],
          [
            36.075537,
            33.657768
          ],
          [
            36.075905,
            33.654817
          ],
          [
            36.075669,
            33.652788
          ],
          [
            36.075799,
            33.651759
          ],
          [
            36.07606,
            33.650874
          ],
          [
            36.07601,
            33.650077
          ],
          [
            36.075554,
            33.64822
          ],
          [
            36.07558,
            33.646113
          ],
          [
            36.076658,
            33.643061
          ],
          [
            36.076696,
            33.640728
          ],
          [
            36.076626,
            33.64018
          ],
          [
            36.075865,
            33.638183
          ],
          [
            36.075141,
            33.635752
          ],
          [
            36.074506,
            33.635017
          ],
          [
            36.073605,
            33.632432
          ],
          [
            36.0737,
            33.631785
          ],
          [
            36.074183,
            33.631061
          ]
        ]
      },
      "properties": {
        "route_id": "beirut-damascus",
        "sequence": 21,
        "from": "Madaya",
        "to": "El-Tekkieh",
        "from_id": "madaya",
        "to_id": "el-tekkieh",
        "geometry_status": "surveyed",
        "geometry_source": "osm",
        "corridor_confidence": "medium",
        "connection_status": "inferred",
        "source_ids": [
          "osm"
        ]
      }
    },
    {
      "type": "Feature",
      "geometry": {
        "type": "LineString",
        "coordinates": [
          [
            36.074183,
            33.631061
          ],
          [
            36.074312,
            33.630652
          ],
          [
            36.074156,
            33.630126
          ],
          [
            36.073408,
            33.62875
          ],
          [
            36.07315,
            33.62812
          ],
          [
            36.07313,
            33.627681
          ],
          [
            36.073183,
            33.627234
          ],
          [
            36.074107,
            33.626393
          ]
        ]
      },
      "properties": {
        "route_id": "beirut-damascus",
        "sequence": 22,
        "from": "El-Tekkieh",
        "to": "Al-Dimas",
        "from_id": "el-tekkieh",
        "to_id": "dimas",
        "geometry_status": "surveyed",
        "geometry_source": "osm",
        "corridor_confidence": "medium",
        "connection_status": "inferred",
        "source_ids": [
          "osm"
        ]
      }
    },
    {
      "type": "Feature",
      "geometry": {
        "type": "LineString",
        "coordinates": [
          [
            36.074107,
            33.626393
          ],
          [
            36.075168,
            33.625429
          ],
          [
            36.07643,
            33.624813
          ],
          [
            36.078711,
            33.624747
          ],
          [
            36.07908,
            33.624517
          ],
          [
            36.079576,
            33.6236
          ],
          [
            36.080022,
            33.623315
          ],
          [
            36.080399,
            33.62321
          ],
          [
            36.081445,
            33.623473
          ],
          [
            36.082578,
            33.624192
          ],
          [
            36.083155,
            33.624224
          ],
          [
            36.08399,
            33.623948
          ],
          [
            36.085707,
            33.62383
          ],
          [
            36.086096,
            33.623895
          ],
          [
            36.087001,
            33.624268
          ],
          [
            36.087862,
            33.624204
          ],
          [
            36.088684,
            33.623856
          ],
          [
            36.089076,
            33.622903
          ],
          [
            36.089809,
            33.622535
          ],
          [
            36.090216,
            33.622532
          ],
          [
            36.091474,
            33.623174
          ],
          [
            36.093078,
            33.623156
          ],
          [
            36.094062,
            33.62355
          ],
          [
            36.095399,
            33.623432
          ],
          [
            36.096329,
            33.623587
          ],
          [
            36.097364,
            33.623433
          ],
          [
            36.097735,
            33.623546
          ],
          [
            36.098446,
            33.623981
          ],
          [
            36.098819,
            33.624413
          ],
          [
            36.098969,
            33.624798
          ],
          [
            36.098945,
            33.626458
          ],
          [
            36.099245,
            33.626939
          ],
          [
            36.099772,
            33.62716
          ],
          [
            36.100194,
            33.627154
          ],
          [
            36.100805,
            33.626975
          ],
          [
            36.102241,
            33.626917
          ],
          [
            36.103367,
            33.626522
          ],
          [
            36.104476,
            33.626415
          ],
          [
            36.105473,
            33.625884
          ],
          [
            36.107004,
            33.625443
          ],
          [
            36.107489,
            33.625076
          ]
        ]
      },
      "properties": {
        "route_id": "beirut-damascus",
        "sequence": 23,
        "from": "Al-Dimas",
        "to": "Souk Wadi Barada",
        "from_id": "dimas",
        "to_id": "souk-wadi-barada",
        "geometry_status": "surveyed",
        "geometry_source": "osm",
        "source_ids": [
          "osm"
        ]
      }
    },
    {
      "type": "Feature",
      "geometry": {
        "type": "LineString",
        "coordinates": [
          [
            36.107489,
            33.625076
          ],
          [
            36.107984,
            33.624627
          ],
          [
            36.108611,
            33.624364
          ],
          [
            36.109245,
            33.624243
          ],
          [
            36.109766,
            33.623861
          ],
          [
            36.110487,
            33.623125
          ],
          [
            36.110808,
            33.622575
          ],
          [
            36.111087,
            33.620715
          ],
          [
            36.110968,
            33.620165
          ],
          [
            36.111019,
            33.619579
          ],
          [
            36.111309,
            33.619106
          ],
          [
            36.112684,
            33.61813
          ],
          [
            36.11283,
            33.617695
          ],
          [
            36.11263,
            33.615564
          ],
          [
            36.112808,
            33.614801
          ],
          [
            36.113782,
            33.613755
          ],
          [
            36.115215,
            33.613005
          ],
          [
            36.116025,
            33.613004
          ],
          [
            36.11666,
            33.612823
          ],
          [
            36.117872,
            33.611935
          ],
          [
            36.118249,
            33.610891
          ],
          [
            36.118645,
            33.610538
          ],
          [
            36.119251,
            33.610468
          ],
          [
            36.119705,
            33.610561
          ],
          [
            36.120634,
            33.611198
          ],
          [
            36.121158,
            33.611328
          ],
          [
            36.121578,
            33.611265
          ],
          [
            36.121999,
            33.611053
          ],
          [
            36.122755,
            33.610272
          ],
          [
            36.123823,
            33.609824
          ],
          [
            36.124471,
            33.609567
          ],
          [
            36.125495,
            33.60944
          ],
          [
            36.126292,
            33.609006
          ],
          [
            36.129632,
            33.608032
          ],
          [
            36.130451,
            33.607259
          ],
          [
            36.130935,
            33.606965
          ],
          [
            36.131514,
            33.606977
          ],
          [
            36.132818,
            33.607573
          ],
          [
            36.133485,
            33.60763
          ],
          [
            36.134851,
            33.607409
          ]
        ]
      },
      "properties": {
        "route_id": "beirut-damascus",
        "sequence": 24,
        "from": "Souk Wadi Barada",
        "to": "Deir Qanoun",
        "from_id": "souk-wadi-barada",
        "to_id": "deir-qanoun",
        "geometry_status": "surveyed",
        "geometry_source": "osm",
        "corridor_confidence": "medium",
        "connection_status": "inferred",
        "source_ids": [
          "osm"
        ]
      }
    },
    {
      "type": "Feature",
      "geometry": {
        "type": "LineString",
        "coordinates": [
          [
            36.134851,
            33.607409
          ],
          [
            36.135499,
            33.607614
          ],
          [
            36.13648,
            33.608385
          ],
          [
            36.136915,
            33.608545
          ],
          [
            36.138041,
            33.608197
          ],
          [
            36.138477,
            33.608207
          ],
          [
            36.140229,
            33.608719
          ],
          [
            36.141781,
            33.609346
          ],
          [
            36.14332,
            33.609632
          ],
          [
            36.144821,
            33.610573
          ],
          [
            36.145534,
            33.611402
          ],
          [
            36.147608,
            33.611603
          ],
          [
            36.14874,
            33.612302
          ],
          [
            36.149292,
            33.612395
          ],
          [
            36.149765,
            33.612258
          ],
          [
            36.150206,
            33.611853
          ],
          [
            36.150779,
            33.611575
          ],
          [
            36.151404,
            33.611491
          ],
          [
            36.152116,
            33.611525
          ],
          [
            36.153742,
            33.611811
          ],
          [
            36.154277,
            33.611756
          ],
          [
            36.154733,
            33.611618
          ],
          [
            36.155826,
            33.611062
          ],
          [
            36.156629,
            33.610964
          ],
          [
            36.157207,
            33.61102
          ],
          [
            36.157677,
            33.611253
          ],
          [
            36.158184,
            33.611775
          ],
          [
            36.160007,
            33.612931
          ],
          [
            36.161697,
            33.61327
          ],
          [
            36.162229,
            33.613467
          ],
          [
            36.162764,
            33.613999
          ],
          [
            36.163349,
            33.614241
          ],
          [
            36.164435,
            33.614382
          ],
          [
            36.165033,
            33.614335
          ],
          [
            36.16617,
            33.613757
          ],
          [
            36.166592,
            33.613724
          ],
          [
            36.166978,
            33.613803
          ],
          [
            36.167571,
            33.614275
          ],
          [
            36.168073,
            33.614522
          ],
          [
            36.168702,
            33.614524
          ],
          [
            36.169638,
            33.614176
          ],
          [
            36.170179,
            33.614223
          ],
          [
            36.171508,
            33.614602
          ],
          [
            36.172445,
            33.615268
          ],
          [
            36.172953,
            33.615355
          ],
          [
            36.174587,
            33.615238
          ],
          [
            36.175469,
            33.614941
          ],
          [
            36.175842,
            33.614917
          ],
          [
            36.176513,
            33.61513
          ],
          [
            36.177237,
            33.61603
          ],
          [
            36.177647,
            33.616242
          ],
          [
            36.177961,
            33.616259
          ],
          [
            36.179703,
            33.615593
          ],
          [
            36.17995,
            33.615448
          ],
          [
            36.180476,
            33.614843
          ]
        ]
      },
      "properties": {
        "route_id": "beirut-damascus",
        "sequence": 25,
        "from": "Deir Qanoun",
        "to": "Ain el Fijeh",
        "from_id": "deir-qanoun",
        "to_id": "ain-el-fijeh",
        "geometry_status": "surveyed",
        "geometry_source": "osm",
        "corridor_confidence": "medium",
        "connection_status": "inferred",
        "source_ids": [
          "osm"
        ]
      }
    },
    {
      "type": "Feature",
      "geometry": {
        "type": "LineString",
        "coordinates": [
          [
            36.180476,
            33.614843
          ],
          [
            36.183123,
            33.613847
          ],
          [
            36.186687,
            33.614057
          ],
          [
            36.189475,
            33.613012
          ],
          [
            36.19088,
            33.611593
          ],
          [
            36.191276,
            33.611089
          ],
          [
            36.191459,
            33.610617
          ],
          [
            36.191321,
            33.608654
          ],
          [
            36.191351,
            33.607781
          ],
          [
            36.191589,
            33.607202
          ],
          [
            36.191999,
            33.606653
          ],
          [
            36.192605,
            33.604765
          ],
          [
            36.193279,
            33.60439
          ],
          [
            36.196267,
            33.604711
          ],
          [
            36.196646,
            33.604657
          ],
          [
            36.196998,
            33.604539
          ],
          [
            36.197331,
            33.604285
          ],
          [
            36.197699,
            33.603503
          ],
          [
            36.19843,
            33.602911
          ],
          [
            36.198515,
            33.602744
          ],
          [
            36.198438,
            33.602139
          ],
          [
            36.197929,
            33.601156
          ],
          [
            36.197921,
            33.600904
          ],
          [
            36.198189,
            33.60038
          ],
          [
            36.198209,
            33.600099
          ],
          [
            36.197862,
            33.599415
          ],
          [
            36.197815,
            33.598976
          ],
          [
            36.198114,
            33.597095
          ],
          [
            36.198937,
            33.596206
          ],
          [
            36.199255,
            33.595787
          ],
          [
            36.199373,
            33.595462
          ],
          [
            36.199209,
            33.593792
          ],
          [
            36.198722,
            33.592604
          ],
          [
            36.198819,
            33.590485
          ],
          [
            36.198344,
            33.589876
          ],
          [
            36.197634,
            33.589469
          ],
          [
            36.197268,
            33.58899
          ],
          [
            36.197108,
            33.588391
          ],
          [
            36.196396,
            33.58727
          ],
          [
            36.195471,
            33.58648
          ],
          [
            36.195226,
            33.586045
          ]
        ]
      },
      "properties": {
        "route_id": "beirut-damascus",
        "sequence": 26,
        "from": "Ain el Fijeh",
        "to": "Achrafieh",
        "from_id": "ain-el-fijeh",
        "to_id": "achrafieh",
        "geometry_status": "surveyed",
        "geometry_source": "osm",
        "corridor_confidence": "medium",
        "connection_status": "inferred",
        "source_ids": [
          "osm"
        ]
      }
    },
    {
      "type": "Feature",
      "geometry": {
        "type": "LineString",
        "coordinates": [
          [
            36.195226,
            33.586045
          ],
          [
            36.19525,
            33.585411
          ],
          [
            36.195677,
            33.584341
          ],
          [
            36.195382,
            33.582737
          ],
          [
            36.195207,
            33.58227
          ],
          [
            36.193653,
            33.580574
          ],
          [
            36.192746,
            33.580139
          ],
          [
            36.192532,
            33.57988
          ],
          [
            36.192371,
            33.579384
          ],
          [
            36.192625,
            33.578826
          ],
          [
            36.193536,
            33.577844
          ],
          [
            36.194248,
            33.576857
          ],
          [
            36.194012,
            33.575753
          ],
          [
            36.193509,
            33.574912
          ],
          [
            36.193508,
            33.574237
          ],
          [
            36.193632,
            33.573863
          ]
        ]
      },
      "properties": {
        "route_id": "beirut-damascus",
        "sequence": 27,
        "from": "Achrafieh",
        "to": "Jdeideh",
        "from_id": "achrafieh",
        "to_id": "jdeideh",
        "geometry_status": "surveyed",
        "geometry_source": "osm",
        "corridor_confidence": "medium",
        "connection_status": "inferred",
        "source_ids": [
          "osm"
        ]
      }
    },
    {
      "type": "Feature",
      "geometry": {
        "type": "LineString",
        "coordinates": [
          [
            36.193632,
            33.573863
          ],
          [
            36.194742,
            33.572853
          ],
          [
            36.195172,
            33.572412
          ],
          [
            36.195276,
            33.572178
          ],
          [
            36.195306,
            33.571697
          ],
          [
            36.194895,
            33.570803
          ],
          [
            36.194848,
            33.569599
          ],
          [
            36.197406,
            33.567264
          ],
          [
            36.197918,
            33.567178
          ],
          [
            36.198346,
            33.567242
          ],
          [
            36.198715,
            33.56741
          ],
          [
            36.19929,
            33.56805
          ],
          [
            36.199917,
            33.568266
          ],
          [
            36.200509,
            33.568195
          ],
          [
            36.201225,
            33.567603
          ],
          [
            36.201957,
            33.567453
          ],
          [
            36.203026,
            33.567736
          ],
          [
            36.203932,
            33.568166
          ],
          [
            36.20453,
            33.568136
          ],
          [
            36.205138,
            33.567684
          ],
          [
            36.205411,
            33.567289
          ],
          [
            36.205465,
            33.566907
          ],
          [
            36.205269,
            33.566079
          ],
          [
            36.205382,
            33.565633
          ],
          [
            36.206072,
            33.564741
          ],
          [
            36.206458,
            33.564474
          ],
          [
            36.207375,
            33.56409
          ],
          [
            36.209184,
            33.564006
          ],
          [
            36.210422,
            33.563769
          ],
          [
            36.213201,
            33.562403
          ],
          [
            36.214506,
            33.561282
          ],
          [
            36.215383,
            33.560929
          ],
          [
            36.21767,
            33.560489
          ],
          [
            36.218528,
            33.559923
          ],
          [
            36.218687,
            33.559727
          ],
          [
            36.218878,
            33.558681
          ],
          [
            36.21924,
            33.55768
          ],
          [
            36.220647,
            33.556684
          ]
        ]
      },
      "properties": {
        "route_id": "beirut-damascus",
        "sequence": 28,
        "from": "Jdeideh",
        "to": "Al-Hama",
        "from_id": "jdeideh",
        "to_id": "al-hama",
        "geometry_status": "surveyed",
        "geometry_source": "osm",
        "corridor_confidence": "medium",
        "connection_status": "inferred",
        "source_ids": [
          "osm"
        ]
      }
    },
    {
      "type": "Feature",
      "geometry": {
        "type": "LineString",
        "coordinates": [
          [
            36.220647,
            33.556684
          ],
          [
            36.220874,
            33.556433
          ],
          [
            36.221295,
            33.555163
          ],
          [
            36.221195,
            33.554665
          ],
          [
            36.219526,
            33.550954
          ],
          [
            36.219915,
            33.549214
          ],
          [
            36.220092,
            33.548908
          ],
          [
            36.220704,
            33.54836
          ],
          [
            36.221305,
            33.546965
          ],
          [
            36.221705,
            33.546441
          ],
          [
            36.222574,
            33.545856
          ],
          [
            36.223382,
            33.544934
          ],
          [
            36.224379,
            33.544588
          ],
          [
            36.224955,
            33.544666
          ],
          [
            36.225332,
            33.544913
          ],
          [
            36.226082,
            33.545777
          ],
          [
            36.226562,
            33.546182
          ],
          [
            36.227431,
            33.546349
          ],
          [
            36.227989,
            33.546227
          ],
          [
            36.229557,
            33.545094
          ],
          [
            36.230479,
            33.544582
          ],
          [
            36.230714,
            33.54434
          ],
          [
            36.230828,
            33.544158
          ],
          [
            36.231004,
            33.542148
          ],
          [
            36.231726,
            33.541492
          ],
          [
            36.232495,
            33.54125
          ],
          [
            36.232884,
            33.541224
          ],
          [
            36.234142,
            33.541472
          ],
          [
            36.235213,
            33.541443
          ],
          [
            36.236531,
            33.541716
          ],
          [
            36.237499,
            33.542127
          ],
          [
            36.237994,
            33.542133
          ],
          [
            36.238355,
            33.541987
          ],
          [
            36.23874,
            33.541627
          ],
          [
            36.238809,
            33.541162
          ],
          [
            36.238552,
            33.540431
          ],
          [
            36.238645,
            33.539946
          ],
          [
            36.238798,
            33.539781
          ]
        ]
      },
      "properties": {
        "route_id": "beirut-damascus",
        "sequence": 29,
        "from": "Al-Hama",
        "to": "Dummar",
        "from_id": "al-hama",
        "to_id": "dummar",
        "geometry_status": "surveyed",
        "geometry_source": "osm",
        "corridor_confidence": "medium",
        "connection_status": "inferred",
        "source_ids": [
          "osm"
        ]
      }
    },
    {
      "type": "Feature",
      "geometry": {
        "type": "LineString",
        "coordinates": [
          [
            36.237114,
            33.538769
          ],
          [
            36.294949,
            33.511149
          ]
        ]
      },
      "properties": {
        "route_id": "beirut-damascus",
        "sequence": 30,
        "from": "Dummar",
        "to": "Damascus (Hejaz)",
        "from_id": "dummar",
        "to_id": "damascus-hejaz",
        "geometry_status": "schematic",
        "geometry_source": "schematic",
        "corridor_confidence": "medium",
        "connection_status": "inferred"
      }
    }
  ]
}
