{
  "type": "FeatureCollection",
  "route": {
    "route_id": "cairo-aswan",
    "name": "Cairo-Aswan Railway (Upper Egypt Main Line)",
    "name_arabic": "سكة حديد القاهرة-أسوان",
    "countries": "Egypt",
    "gauge_mm": 1435,
    "year_opened": 1874,
    "era": "historic",
    "color": "#b45309",
    "corridor_confidence": "high",
    "description": "Upper Egypt Nile-valley trunk; luxury 'Sunshine Express'",
    "notes": "ADDED as a 12th route from the Railway Wonders article + Wikipedia station list. Not in the original project 11; confirm you want it in the canonical set.  [established] Built in stages: Cairo–Assiut by 1874 (230 mi); Assiut–Luxor by 1898 (340 mi, Nile crossing at Nag Hammadi); Kena–Aswan by the private Kena-Aswan Railway Company; Aswan–Shellal was an 1884 military line, absorbed 1898.  [gauge_mm] Now standard gauge (1,435 mm). Historically MIXED: Kena–Luxor standard; Luxor–Aswan 3 ft 6 in (1,067 mm); Aswan–Shellal narrow gauge, regauged to standard in 1926 (railwaywonders).  [route] Stops from the Railway Wonders article (Cairo, Assiut, Nag Hammadi, Qena, Luxor, Aswan, Shellal) plus the modern main-line order from Wikipedia’s Egyptian station list (Beni Suef, Minya, Mallawi, Sohag, Esna, Edfu, Kom Ombo).",
    "history": "The Upper Egypt Nile-valley main line, built southward in stages: Cairo–Assiut by 1874, Assiut–Luxor by 1898 (crossing the Nile at Nag Hammadi). The Kena–Aswan section was built by the private Kena-Aswan Railway Company; the Aswan–Shellal section began as an 1884 military line for the first Sudan campaign and was regauged to standard gauge in 1926. By the mid-1930s three trains a day ran each way Cairo–Luxor (~12 hours) and two a day to Aswan/Shellal (480 miles, ~17 hours).",
    "verification_status": "unverified",
    "source_ids": [
      "levantrain_compilation",
      "railwaywonders",
      "wp_egypt_stations"
    ]
  },
  "features": [
    {
      "type": "Feature",
      "geometry": {
        "type": "LineString",
        "coordinates": [
          [
            31.245,
            30.06
          ],
          [
            31.099,
            29.074
          ]
        ]
      },
      "properties": {
        "route_id": "cairo-aswan",
        "sequence": 1,
        "from": "Cairo",
        "to": "Beni Suef",
        "from_id": "cairo",
        "to_id": "beni-suef",
        "geometry_status": "schematic",
        "geometry_source": "schematic",
        "corridor_confidence": "high",
        "connection_status": "documented"
      }
    },
    {
      "type": "Feature",
      "geometry": {
        "type": "LineString",
        "coordinates": [
          [
            31.099,
            29.074
          ],
          [
            30.75,
            28.109
          ]
        ]
      },
      "properties": {
        "route_id": "cairo-aswan",
        "sequence": 2,
        "from": "Beni Suef",
        "to": "Minya",
        "from_id": "beni-suef",
        "to_id": "minya",
        "geometry_status": "schematic",
        "geometry_source": "schematic",
        "corridor_confidence": "high",
        "connection_status": "documented"
      }
    },
    {
      "type": "Feature",
      "geometry": {
        "type": "LineString",
        "coordinates": [
          [
            30.748385,
            28.10806
          ],
          [
            30.749264,
            28.105712
          ],
          [
            30.752243,
            28.098576
          ],
          [
            30.756293,
            28.092699
          ],
          [
            30.756834,
            28.091509
          ],
          [
            30.757134,
            28.09049
          ],
          [
            30.759392,
            28.08043
          ],
          [
            30.759668,
            28.079472
          ],
          [
            30.760247,
            28.078053
          ],
          [
            30.761536,
            28.076352
          ],
          [
            30.787941,
            28.049509
          ],
          [
            30.790499,
            28.046855
          ],
          [
            30.792088,
            28.044926
          ],
          [
            30.793049,
            28.043526
          ],
          [
            30.810473,
            28.014809
          ],
          [
            30.811759,
            28.01237
          ],
          [
            30.815515,
            28.004509
          ],
          [
            30.829463,
            27.974296
          ],
          [
            30.832345,
            27.968324
          ],
          [
            30.832804,
            27.966945
          ],
          [
            30.833066,
            27.965407
          ],
          [
            30.833048,
            27.964064
          ],
          [
            30.832674,
            27.962352
          ],
          [
            30.824219,
            27.937219
          ],
          [
            30.821729,
            27.92948
          ],
          [
            30.82067,
            27.92652
          ],
          [
            30.819378,
            27.922263
          ],
          [
            30.815581,
            27.91134
          ],
          [
            30.803034,
            27.874036
          ],
          [
            30.79945,
            27.863103
          ],
          [
            30.799191,
            27.860966
          ],
          [
            30.800458,
            27.824775
          ],
          [
            30.800578,
            27.824021
          ],
          [
            30.800917,
            27.822915
          ],
          [
            30.806239,
            27.809915
          ],
          [
            30.806811,
            27.808953
          ],
          [
            30.807498,
            27.808074
          ],
          [
            30.808917,
            27.806735
          ],
          [
            30.810896,
            27.80564
          ],
          [
            30.812401,
            27.805119
          ],
          [
            30.839335,
            27.797509
          ],
          [
            30.840771,
            27.796866
          ],
          [
            30.842074,
            27.795981
          ],
          [
            30.842745,
            27.795407
          ],
          [
            30.843816,
            27.79409
          ],
          [
            30.844403,
            27.792779
          ],
          [
            30.844635,
            27.791051
          ],
          [
            30.844256,
            27.789594
          ],
          [
            30.842846,
            27.786549
          ],
          [
            30.842381,
            27.785102
          ],
          [
            30.842129,
            27.783067
          ],
          [
            30.842246,
            27.78134
          ],
          [
            30.843213,
            27.775143
          ],
          [
            30.843981,
            27.768403
          ],
          [
            30.846514,
            27.750876
          ],
          [
            30.847561,
            27.742879
          ],
          [
            30.84809,
            27.739505
          ],
          [
            30.848723,
            27.736939
          ],
          [
            30.849511,
            27.734887
          ]
        ]
      },
      "properties": {
        "route_id": "cairo-aswan",
        "sequence": 3,
        "from": "Minya",
        "to": "Mallawi",
        "from_id": "minya",
        "to_id": "mallawi",
        "geometry_status": "surveyed",
        "geometry_source": "osm",
        "corridor_confidence": "high",
        "connection_status": "documented",
        "source_ids": [
          "osm"
        ]
      }
    },
    {
      "type": "Feature",
      "geometry": {
        "type": "LineString",
        "coordinates": [
          [
            30.841,
            27.732
          ],
          [
            31.183,
            27.18
          ]
        ]
      },
      "properties": {
        "route_id": "cairo-aswan",
        "sequence": 4,
        "from": "Mallawi",
        "to": "Asyut",
        "from_id": "mallawi",
        "to_id": "asyut",
        "geometry_status": "schematic",
        "geometry_source": "schematic",
        "corridor_confidence": "high",
        "connection_status": "documented"
      }
    },
    {
      "type": "Feature",
      "geometry": {
        "type": "LineString",
        "coordinates": [
          [
            31.185373,
            27.182912
          ],
          [
            31.196864,
            27.172488
          ],
          [
            31.197554,
            27.17167
          ],
          [
            31.199327,
            27.169112
          ],
          [
            31.200844,
            27.165977
          ],
          [
            31.202078,
            27.165001
          ],
          [
            31.203942,
            27.162389
          ],
          [
            31.204176,
            27.16186
          ],
          [
            31.211663,
            27.150788
          ],
          [
            31.212521,
            27.149657
          ],
          [
            31.213543,
            27.148656
          ],
          [
            31.214461,
            27.147956
          ],
          [
            31.215497,
            27.147374
          ],
          [
            31.217179,
            27.146701
          ],
          [
            31.219012,
            27.146314
          ],
          [
            31.220231,
            27.146226
          ],
          [
            31.284987,
            27.1466
          ],
          [
            31.286938,
            27.14638
          ],
          [
            31.289071,
            27.145728
          ],
          [
            31.290511,
            27.144979
          ],
          [
            31.29118,
            27.144524
          ],
          [
            31.291983,
            27.143855
          ],
          [
            31.293004,
            27.142705
          ],
          [
            31.293932,
            27.141206
          ],
          [
            31.294386,
            27.140059
          ],
          [
            31.294674,
            27.138873
          ],
          [
            31.297045,
            27.111218
          ],
          [
            31.297555,
            27.104321
          ],
          [
            31.297767,
            27.103099
          ],
          [
            31.301869,
            27.088397
          ],
          [
            31.305892,
            27.074466
          ],
          [
            31.307208,
            27.069527
          ],
          [
            31.309514,
            27.06166
          ],
          [
            31.315537,
            27.039607
          ],
          [
            31.316376,
            27.037684
          ],
          [
            31.319182,
            27.033862
          ],
          [
            31.334511,
            27.014596
          ],
          [
            31.34017,
            27.0073
          ],
          [
            31.355418,
            26.988009
          ],
          [
            31.368836,
            26.971146
          ],
          [
            31.36991,
            26.969902
          ],
          [
            31.371222,
            26.96854
          ],
          [
            31.372702,
            26.967183
          ],
          [
            31.379654,
            26.961215
          ],
          [
            31.381997,
            26.958974
          ],
          [
            31.38698,
            26.953
          ],
          [
            31.396716,
            26.941638
          ],
          [
            31.406333,
            26.93014
          ],
          [
            31.408839,
            26.92731
          ],
          [
            31.427375,
            26.909312
          ],
          [
            31.44084,
            26.896493
          ],
          [
            31.442696,
            26.894593
          ],
          [
            31.443425,
            26.893674
          ],
          [
            31.457417,
            26.87111
          ],
          [
            31.460431,
            26.866096
          ],
          [
            31.468706,
            26.854367
          ],
          [
            31.479358,
            26.83945
          ],
          [
            31.482321,
            26.835441
          ],
          [
            31.483233,
            26.834008
          ],
          [
            31.483645,
            26.83299
          ],
          [
            31.490695,
            26.808913
          ],
          [
            31.49362,
            26.784846
          ],
          [
            31.494378,
            26.782731
          ],
          [
            31.497496,
            26.778612
          ],
          [
            31.510135,
            26.762847
          ],
          [
            31.531726,
            26.742947
          ],
          [
            31.533727,
            26.741206
          ],
          [
            31.534509,
            26.740695
          ],
          [
            31.535892,
            26.739993
          ],
          [
            31.538222,
            26.739121
          ],
          [
            31.55593,
            26.733489
          ],
          [
            31.55721,
            26.732924
          ],
          [
            31.558408,
            26.732211
          ],
          [
            31.572135,
            26.723142
          ],
          [
            31.575304,
            26.720836
          ],
          [
            31.57879,
            26.718673
          ],
          [
            31.582339,
            26.716251
          ],
          [
            31.583148,
            26.715547
          ],
          [
            31.601873,
            26.697104
          ],
          [
            31.602666,
            26.69597
          ],
          [
            31.603399,
            26.694446
          ],
          [
            31.621404,
            26.649674
          ],
          [
            31.624007,
            26.643008
          ],
          [
            31.624837,
            26.641074
          ],
          [
            31.625375,
            26.640159
          ],
          [
            31.626414,
            26.638906
          ],
          [
            31.630861,
            26.63494
          ],
          [
            31.631719,
            26.633954
          ],
          [
            31.656846,
            26.597001
          ],
          [
            31.669492,
            26.582942
          ],
          [
            31.674813,
            26.577176
          ],
          [
            31.675714,
            26.575854
          ],
          [
            31.679202,
            26.569888
          ],
          [
            31.683761,
            26.564437
          ],
          [
            31.686675,
            26.562001
          ],
          [
            31.688765,
            26.560402
          ],
          [
            31.69461,
            26.554991
          ]
        ]
      },
      "properties": {
        "route_id": "cairo-aswan",
        "sequence": 5,
        "from": "Asyut",
        "to": "Sohag",
        "from_id": "asyut",
        "to_id": "sohag",
        "geometry_status": "surveyed",
        "geometry_source": "osm",
        "corridor_confidence": "high",
        "connection_status": "documented",
        "source_ids": [
          "osm"
        ]
      }
    },
    {
      "type": "Feature",
      "geometry": {
        "type": "LineString",
        "coordinates": [
          [
            31.695,
            26.557
          ],
          [
            32.239,
            26.048
          ]
        ]
      },
      "properties": {
        "route_id": "cairo-aswan",
        "sequence": 6,
        "from": "Sohag",
        "to": "Nag Hammadi",
        "from_id": "sohag",
        "to_id": "nag-hammadi",
        "geometry_status": "schematic",
        "geometry_source": "schematic",
        "corridor_confidence": "high",
        "connection_status": "documented"
      }
    },
    {
      "type": "Feature",
      "geometry": {
        "type": "LineString",
        "coordinates": [
          [
            32.2336,
            26.040924
          ],
          [
            32.23547,
            26.039461
          ],
          [
            32.236468,
            26.038553
          ],
          [
            32.238995,
            26.035925
          ],
          [
            32.239571,
            26.035097
          ],
          [
            32.246598,
            26.029363
          ],
          [
            32.250956,
            26.024726
          ],
          [
            32.254598,
            26.021327
          ],
          [
            32.253725,
            26.022706
          ],
          [
            32.251031,
            26.025266
          ],
          [
            32.24799,
            26.028981
          ],
          [
            32.241449,
            26.03411
          ],
          [
            32.240224,
            26.035126
          ],
          [
            32.239493,
            26.035881
          ],
          [
            32.236879,
            26.038949
          ],
          [
            32.236627,
            26.039423
          ],
          [
            32.236268,
            26.040897
          ],
          [
            32.236082,
            26.041304
          ],
          [
            32.235456,
            26.041964
          ],
          [
            32.234544,
            26.042454
          ],
          [
            32.236283,
            26.042459
          ],
          [
            32.239978,
            26.043202
          ],
          [
            32.242885,
            26.043564
          ],
          [
            32.244661,
            26.044116
          ],
          [
            32.247144,
            26.045268
          ],
          [
            32.253783,
            26.046729
          ],
          [
            32.255073,
            26.047186
          ],
          [
            32.255868,
            26.047603
          ],
          [
            32.256357,
            26.047931
          ],
          [
            32.25772,
            26.049178
          ],
          [
            32.266823,
            26.058181
          ],
          [
            32.267388,
            26.058698
          ],
          [
            32.268791,
            26.059695
          ],
          [
            32.299183,
            26.077615
          ],
          [
            32.303448,
            26.080312
          ],
          [
            32.313912,
            26.086316
          ],
          [
            32.315108,
            26.086924
          ],
          [
            32.31667,
            26.08739
          ],
          [
            32.320511,
            26.088267
          ],
          [
            32.322227,
            26.088425
          ],
          [
            32.332676,
            26.08739
          ],
          [
            32.337612,
            26.086717
          ],
          [
            32.364396,
            26.083761
          ],
          [
            32.365951,
            26.083839
          ],
          [
            32.377622,
            26.085229
          ],
          [
            32.381662,
            26.08589
          ],
          [
            32.383782,
            26.086417
          ],
          [
            32.391234,
            26.08902
          ],
          [
            32.402382,
            26.093171
          ],
          [
            32.403725,
            26.09386
          ],
          [
            32.405517,
            26.095228
          ],
          [
            32.415188,
            26.104043
          ],
          [
            32.423245,
            26.111207
          ],
          [
            32.424612,
            26.112153
          ],
          [
            32.425717,
            26.112708
          ],
          [
            32.428189,
            26.113563
          ],
          [
            32.454415,
            26.121808
          ],
          [
            32.474886,
            26.126059
          ],
          [
            32.485539,
            26.127059
          ],
          [
            32.488015,
            26.12699
          ],
          [
            32.497528,
            26.125102
          ],
          [
            32.516503,
            26.120921
          ],
          [
            32.519463,
            26.120513
          ],
          [
            32.539925,
            26.119969
          ],
          [
            32.541905,
            26.120065
          ],
          [
            32.543675,
            26.120288
          ],
          [
            32.546395,
            26.12091
          ],
          [
            32.547654,
            26.121306
          ],
          [
            32.548733,
            26.121715
          ],
          [
            32.550351,
            26.122508
          ],
          [
            32.553036,
            26.12423
          ],
          [
            32.553765,
            26.12481
          ],
          [
            32.577642,
            26.145485
          ],
          [
            32.580815,
            26.148303
          ],
          [
            32.581898,
            26.149415
          ],
          [
            32.583439,
            26.151412
          ],
          [
            32.584297,
            26.152898
          ],
          [
            32.590908,
            26.167224
          ],
          [
            32.591412,
            26.168008
          ],
          [
            32.592179,
            26.168918
          ],
          [
            32.594895,
            26.171502
          ],
          [
            32.596119,
            26.172244
          ],
          [
            32.60841,
            26.177218
          ],
          [
            32.609604,
            26.177962
          ],
          [
            32.61439,
            26.181829
          ],
          [
            32.616986,
            26.183688
          ],
          [
            32.617989,
            26.184186
          ],
          [
            32.619352,
            26.184636
          ],
          [
            32.620117,
            26.184829
          ],
          [
            32.620976,
            26.184895
          ],
          [
            32.623181,
            26.184876
          ],
          [
            32.628884,
            26.183986
          ],
          [
            32.630501,
            26.183843
          ],
          [
            32.651593,
            26.184123
          ],
          [
            32.655346,
            26.184545
          ],
          [
            32.664868,
            26.18649
          ],
          [
            32.66697,
            26.186503
          ],
          [
            32.668309,
            26.186292
          ],
          [
            32.669583,
            26.185929
          ],
          [
            32.670658,
            26.185485
          ],
          [
            32.676751,
            26.18257
          ],
          [
            32.682476,
            26.179658
          ],
          [
            32.68356,
            26.178874
          ],
          [
            32.689722,
            26.1738
          ],
          [
            32.690759,
            26.173093
          ],
          [
            32.693507,
            26.171579
          ],
          [
            32.697135,
            26.172197
          ],
          [
            32.699422,
            26.169325
          ],
          [
            32.711659,
            26.169083
          ],
          [
            32.713248,
            26.168974
          ],
          [
            32.715005,
            26.168547
          ],
          [
            32.715916,
            26.168225
          ],
          [
            32.717572,
            26.167421
          ]
        ]
      },
      "properties": {
        "route_id": "cairo-aswan",
        "sequence": 7,
        "from": "Nag Hammadi",
        "to": "Qena",
        "from_id": "nag-hammadi",
        "to_id": "qena",
        "geometry_status": "surveyed",
        "geometry_source": "osm",
        "corridor_confidence": "high",
        "connection_status": "documented",
        "source_ids": [
          "osm"
        ]
      }
    },
    {
      "type": "Feature",
      "geometry": {
        "type": "LineString",
        "coordinates": [
          [
            32.716,
            26.164
          ],
          [
            32.64,
            25.699
          ]
        ]
      },
      "properties": {
        "route_id": "cairo-aswan",
        "sequence": 8,
        "from": "Qena",
        "to": "Luxor",
        "from_id": "qena",
        "to_id": "luxor",
        "geometry_status": "schematic",
        "geometry_source": "schematic",
        "corridor_confidence": "high",
        "connection_status": "documented"
      }
    },
    {
      "type": "Feature",
      "geometry": {
        "type": "LineString",
        "coordinates": [
          [
            32.64,
            25.699
          ],
          [
            32.554,
            25.293
          ]
        ]
      },
      "properties": {
        "route_id": "cairo-aswan",
        "sequence": 9,
        "from": "Luxor",
        "to": "Esna",
        "from_id": "luxor",
        "to_id": "esna",
        "geometry_status": "schematic",
        "geometry_source": "schematic",
        "corridor_confidence": "high",
        "connection_status": "documented"
      }
    },
    {
      "type": "Feature",
      "geometry": {
        "type": "LineString",
        "coordinates": [
          [
            32.554,
            25.293
          ],
          [
            32.873,
            24.978
          ]
        ]
      },
      "properties": {
        "route_id": "cairo-aswan",
        "sequence": 10,
        "from": "Esna",
        "to": "Edfu",
        "from_id": "esna",
        "to_id": "edfu",
        "geometry_status": "schematic",
        "geometry_source": "schematic",
        "corridor_confidence": "high",
        "connection_status": "documented"
      }
    },
    {
      "type": "Feature",
      "geometry": {
        "type": "LineString",
        "coordinates": [
          [
            32.891316,
            24.979775
          ],
          [
            32.891535,
            24.976797
          ],
          [
            32.891534,
            24.976042
          ],
          [
            32.891396,
            24.975104
          ],
          [
            32.891048,
            24.973759
          ],
          [
            32.888196,
            24.96572
          ],
          [
            32.887928,
            24.964221
          ],
          [
            32.887663,
            24.961803
          ],
          [
            32.887732,
            24.958666
          ],
          [
            32.887257,
            24.955643
          ],
          [
            32.887014,
            24.954809
          ],
          [
            32.884717,
            24.949178
          ],
          [
            32.883889,
            24.946541
          ],
          [
            32.880444,
            24.938804
          ],
          [
            32.879065,
            24.934056
          ],
          [
            32.877899,
            24.928365
          ],
          [
            32.877418,
            24.925957
          ],
          [
            32.877316,
            24.924694
          ],
          [
            32.877246,
            24.910604
          ],
          [
            32.877389,
            24.909681
          ],
          [
            32.877694,
            24.908635
          ],
          [
            32.879239,
            24.905355
          ],
          [
            32.879911,
            24.903588
          ],
          [
            32.881456,
            24.896625
          ],
          [
            32.883716,
            24.891883
          ],
          [
            32.884948,
            24.887984
          ],
          [
            32.885116,
            24.887339
          ],
          [
            32.886146,
            24.879879
          ],
          [
            32.886367,
            24.879135
          ],
          [
            32.887175,
            24.877436
          ],
          [
            32.890666,
            24.872202
          ],
          [
            32.891241,
            24.871084
          ],
          [
            32.891529,
            24.870231
          ],
          [
            32.891712,
            24.869151
          ],
          [
            32.891737,
            24.86827
          ],
          [
            32.891354,
            24.855685
          ],
          [
            32.891658,
            24.850641
          ],
          [
            32.891876,
            24.849476
          ],
          [
            32.892249,
            24.848328
          ],
          [
            32.894403,
            24.844092
          ],
          [
            32.896755,
            24.840304
          ],
          [
            32.898882,
            24.835025
          ],
          [
            32.900509,
            24.83247
          ],
          [
            32.901591,
            24.830047
          ],
          [
            32.902222,
            24.829118
          ],
          [
            32.904072,
            24.827325
          ],
          [
            32.904704,
            24.826468
          ],
          [
            32.90746,
            24.821238
          ],
          [
            32.911267,
            24.815465
          ],
          [
            32.912491,
            24.812449
          ],
          [
            32.913243,
            24.811069
          ],
          [
            32.913726,
            24.81038
          ],
          [
            32.915857,
            24.807903
          ],
          [
            32.916719,
            24.806613
          ],
          [
            32.918556,
            24.80172
          ],
          [
            32.923762,
            24.794442
          ],
          [
            32.927754,
            24.787129
          ],
          [
            32.928222,
            24.785744
          ],
          [
            32.934755,
            24.760227
          ],
          [
            32.937882,
            24.745867
          ],
          [
            32.937978,
            24.74415
          ],
          [
            32.937669,
            24.740083
          ],
          [
            32.937618,
            24.73786
          ],
          [
            32.939478,
            24.730183
          ],
          [
            32.939922,
            24.719899
          ],
          [
            32.941583,
            24.708817
          ],
          [
            32.941795,
            24.706831
          ],
          [
            32.941946,
            24.700136
          ],
          [
            32.941374,
            24.695199
          ],
          [
            32.941493,
            24.694033
          ],
          [
            32.941715,
            24.693076
          ],
          [
            32.942791,
            24.690496
          ],
          [
            32.943675,
            24.687998
          ],
          [
            32.944193,
            24.68611
          ],
          [
            32.945278,
            24.681704
          ],
          [
            32.945837,
            24.677267
          ],
          [
            32.946852,
            24.673553
          ],
          [
            32.946973,
            24.672644
          ],
          [
            32.947114,
            24.669642
          ],
          [
            32.947044,
            24.667119
          ],
          [
            32.947227,
            24.661673
          ],
          [
            32.947764,
            24.654578
          ],
          [
            32.947871,
            24.651192
          ],
          [
            32.948175,
            24.646536
          ],
          [
            32.948655,
            24.641523
          ],
          [
            32.950455,
            24.615409
          ],
          [
            32.95043,
            24.602772
          ],
          [
            32.95004,
            24.562202
          ],
          [
            32.949359,
            24.536014
          ],
          [
            32.948234,
            24.502615
          ],
          [
            32.947698,
            24.489193
          ],
          [
            32.946995,
            24.476155
          ]
        ]
      },
      "properties": {
        "route_id": "cairo-aswan",
        "sequence": 11,
        "from": "Edfu",
        "to": "Kom Ombo",
        "from_id": "edfu",
        "to_id": "kom-ombo",
        "geometry_status": "surveyed",
        "geometry_source": "osm",
        "corridor_confidence": "high",
        "connection_status": "documented",
        "source_ids": [
          "osm"
        ]
      }
    },
    {
      "type": "Feature",
      "geometry": {
        "type": "LineString",
        "coordinates": [
          [
            32.943,
            24.476
          ],
          [
            32.899,
            24.089
          ]
        ]
      },
      "properties": {
        "route_id": "cairo-aswan",
        "sequence": 12,
        "from": "Kom Ombo",
        "to": "Aswan",
        "from_id": "kom-ombo",
        "to_id": "aswan",
        "geometry_status": "schematic",
        "geometry_source": "schematic",
        "corridor_confidence": "high",
        "connection_status": "documented"
      }
    },
    {
      "type": "Feature",
      "geometry": {
        "type": "LineString",
        "coordinates": [
          [
            32.904223,
            24.093673
          ],
          [
            32.907354,
            24.091247
          ],
          [
            32.908036,
            24.09048
          ],
          [
            32.908547,
            24.089605
          ],
          [
            32.908806,
            24.088592
          ],
          [
            32.908643,
            24.085591
          ],
          [
            32.908728,
            24.084243
          ],
          [
            32.909192,
            24.082472
          ],
          [
            32.910054,
            24.080751
          ],
          [
            32.910366,
            24.08029
          ],
          [
            32.911518,
            24.07904
          ],
          [
            32.91593,
            24.075388
          ],
          [
            32.916637,
            24.074582
          ],
          [
            32.91744,
            24.073045
          ],
          [
            32.917801,
            24.071822
          ],
          [
            32.919749,
            24.053836
          ],
          [
            32.919689,
            24.051806
          ],
          [
            32.919174,
            24.05005
          ],
          [
            32.917552,
            24.046837
          ],
          [
            32.916247,
            24.043153
          ],
          [
            32.915122,
            24.041291
          ],
          [
            32.913754,
            24.039942
          ],
          [
            32.912217,
            24.03901
          ],
          [
            32.911293,
            24.038622
          ],
          [
            32.907695,
            24.037454
          ]
        ]
      },
      "properties": {
        "route_id": "cairo-aswan",
        "sequence": 13,
        "from": "Aswan",
        "to": "Shellal",
        "from_id": "aswan",
        "to_id": "shellal",
        "geometry_status": "surveyed",
        "geometry_source": "osm",
        "corridor_confidence": "medium",
        "connection_status": "inferred",
        "source_ids": [
          "osm"
        ]
      }
    }
  ]
}
