{
  "type": "FeatureCollection",
  "route": {
    "route_id": "eastern-railway",
    "name": "Eastern Railway (Mas'udiya–Lydda)",
    "name_arabic": "السكة الشرقية",
    "countries": "Israel, Palestine",
    "gauge_mm": 1050,
    "year_opened": 1918,
    "era": "historic",
    "color": "#b45309",
    "corridor_confidence": "medium",
    "description": "WWI Ottoman/German line; later standard-gauged",
    "notes": "Engineered by Heinrich Meissner under Ottoman direction — the same engineer as the Hejaz Railway.  [gauge_mm] Built as 1,050 mm NARROW gauge (Ottoman/German, WWI); CONVERTED to standard gauge (1,435 mm) by the British EEF in 1917-18. The project’s '1050/1435' captures both eras.  [route] A BRANCHING network, not a single line: the through spine ran Afula -> Jenin -> Mas’udiya -> Tulkarm -> Lydda, with a spur SE to NABLUS (from Mas’udiya; the 1908-1914 Afula-Nablus branch) and a branch NW to HADERA on the coast (from Tulkarm). Nablus and Hadera are held as off-line extra_stations. The project’s 'Hadera-Tulkarm-Lydda' describes the coastal-plain portion of this network.  [historic_vs_modern] NAME CLASH: a MODERN 'Eastern Railway' (Israel Railways, Rosh HaAyin-Kfar Saba-Hadera, opened from 2016) revives the name and roughly the coastal-plain corridor, but it is a NEW standard-gauge line — distinct from this historic WWI Ottoman/German railway.",
    "history": "A WWI-era line built under Ottoman direction by the German engineer Heinrich Meissner. A branch from Afula (on the Jezreel Valley line) toward Jerusalem was begun in 1908 and reached Nablus by 1914; from 1915 Meissner built a 1,050 mm line west from El Mas'udiya to Tulkarm, with branches north to Hadera and south to Lydda (linking the Jaffa-Jerusalem line). Intermediate halts + Nablus-branch junction stations added from the 1925 PR Diagram. Chainage from Afula; values beyond Mas'udiya derived by joining the map's Nablus-branch chaining at the shared Mas'udiya junction. Qalqilya/Lydda chainage left null (not on this sheet's eastern chaining). Segment geometry reset to schematic on re-sequencing.",
    "verification_status": "unverified",
    "source_ids": [
      "levantrain_compilation",
      "levantrain_system",
      "os_near_east_railways_1919",
      "pr_diagram_1925",
      "wp_afula_nablus_railway",
      "wp_israel_rw",
      "wp_palestine_rw"
    ]
  },
  "features": [
    {
      "type": "Feature",
      "geometry": {
        "type": "LineString",
        "coordinates": [
          [
            35.17912,
            32.28146
          ],
          [
            35.179939,
            32.281323
          ],
          [
            35.180399,
            32.280959
          ],
          [
            35.180549,
            32.280643
          ],
          [
            35.180587,
            32.280383
          ],
          [
            35.180452,
            32.279863
          ],
          [
            35.179991,
            32.279417
          ],
          [
            35.179672,
            32.279285
          ],
          [
            35.173727,
            32.27838
          ],
          [
            35.173119,
            32.278135
          ],
          [
            35.1724,
            32.27769
          ],
          [
            35.171163,
            32.276394
          ],
          [
            35.17038,
            32.276004
          ],
          [
            35.169908,
            32.275904
          ],
          [
            35.166764,
            32.276448
          ],
          [
            35.165852,
            32.276339
          ],
          [
            35.163516,
            32.275776
          ],
          [
            35.161381,
            32.275922
          ],
          [
            35.158031,
            32.275595
          ],
          [
            35.157184,
            32.275613
          ],
          [
            35.156357,
            32.275931
          ],
          [
            35.155287,
            32.276919
          ],
          [
            35.154815,
            32.277237
          ],
          [
            35.152862,
            32.278316
          ],
          [
            35.152087,
            32.278562
          ],
          [
            35.151285,
            32.278525
          ],
          [
            35.150105,
            32.278253
          ],
          [
            35.148772,
            32.277582
          ],
          [
            35.147892,
            32.277482
          ],
          [
            35.147528,
            32.277582
          ],
          [
            35.147066,
            32.277909
          ],
          [
            35.146476,
            32.278797
          ],
          [
            35.146146,
            32.279114
          ],
          [
            35.145307,
            32.279596
          ],
          [
            35.143322,
            32.280457
          ],
          [
            35.142973,
            32.280713
          ],
          [
            35.141919,
            32.281881
          ],
          [
            35.140672,
            32.282561
          ],
          [
            35.139159,
            32.283858
          ],
          [
            35.137035,
            32.284774
          ],
          [
            35.136284,
            32.285436
          ],
          [
            35.135897,
            32.286548
          ],
          [
            35.135783,
            32.288282
          ],
          [
            35.13565,
            32.288634
          ],
          [
            35.134441,
            32.290848
          ],
          [
            35.133904,
            32.29154
          ],
          [
            35.132969,
            32.292375
          ],
          [
            35.132668,
            32.292837
          ],
          [
            35.13226,
            32.294185
          ],
          [
            35.130263,
            32.297688
          ],
          [
            35.130209,
            32.298147
          ],
          [
            35.130478,
            32.299735
          ],
          [
            35.130451,
            32.300237
          ],
          [
            35.130308,
            32.300719
          ],
          [
            35.129883,
            32.301324
          ],
          [
            35.129369,
            32.301738
          ],
          [
            35.125668,
            32.303461
          ],
          [
            35.124054,
            32.303618
          ],
          [
            35.120207,
            32.303507
          ],
          [
            35.119028,
            32.303689
          ],
          [
            35.117423,
            32.304164
          ],
          [
            35.116319,
            32.304815
          ],
          [
            35.115355,
            32.305525
          ],
          [
            35.114806,
            32.30607
          ],
          [
            35.114396,
            32.306696
          ],
          [
            35.116049,
            32.307284
          ]
        ]
      },
      "properties": {
        "route_id": "eastern-railway",
        "sequence": 1,
        "from": "Mas'udiya",
        "to": "Anebta",
        "from_id": "mas-udiya",
        "to_id": "anebta",
        "geometry_status": "surveyed",
        "geometry_source": "osm",
        "corridor_confidence": "medium",
        "connection_status": "documented",
        "source_ids": [
          "osm"
        ]
      }
    },
    {
      "type": "Feature",
      "geometry": {
        "type": "LineString",
        "coordinates": [
          [
            35.116049,
            32.307284
          ],
          [
            35.058621,
            32.319035
          ]
        ]
      },
      "properties": {
        "route_id": "eastern-railway",
        "sequence": 2,
        "from": "Anebta",
        "to": "Nur esh Shams",
        "from_id": "anebta",
        "to_id": "nur-esh-shams",
        "geometry_status": "schematic",
        "geometry_source": "schematic",
        "corridor_confidence": "medium",
        "connection_status": "documented"
      }
    },
    {
      "type": "Feature",
      "geometry": {
        "type": "LineString",
        "coordinates": [
          [
            35.058882,
            32.320524
          ],
          [
            35.053875,
            32.320894
          ],
          [
            35.044732,
            32.321924
          ],
          [
            35.040646,
            32.322267
          ],
          [
            35.038729,
            32.322103
          ],
          [
            35.029324,
            32.320518
          ]
        ]
      },
      "properties": {
        "route_id": "eastern-railway",
        "sequence": 3,
        "from": "Nur esh Shams",
        "to": "Tulkarm",
        "from_id": "nur-esh-shams",
        "to_id": "tulkarm",
        "geometry_status": "surveyed",
        "geometry_source": "osm",
        "corridor_confidence": "medium",
        "connection_status": "documented",
        "source_ids": [
          "osm"
        ]
      }
    },
    {
      "type": "Feature",
      "geometry": {
        "type": "LineString",
        "coordinates": [
          [
            35.0286,
            32.3104
          ],
          [
            34.9708,
            32.1954
          ]
        ]
      },
      "properties": {
        "route_id": "eastern-railway",
        "sequence": 4,
        "from": "Tulkarm",
        "to": "Qalqilya",
        "from_id": "tulkarm",
        "to_id": "qalqilya",
        "geometry_status": "schematic",
        "geometry_source": "schematic",
        "corridor_confidence": "medium",
        "connection_status": "documented"
      }
    },
    {
      "type": "Feature",
      "geometry": {
        "type": "LineString",
        "coordinates": [
          [
            34.95676,
            32.199531
          ],
          [
            34.955714,
            32.19649
          ],
          [
            34.955407,
            32.194716
          ],
          [
            34.955355,
            32.193515
          ],
          [
            34.955554,
            32.19142
          ],
          [
            34.956604,
            32.186608
          ],
          [
            34.956965,
            32.184427
          ],
          [
            34.956994,
            32.182723
          ],
          [
            34.956893,
            32.18169
          ],
          [
            34.956391,
            32.1796
          ],
          [
            34.955828,
            32.17821
          ],
          [
            34.955,
            32.176714
          ],
          [
            34.953606,
            32.174883
          ],
          [
            34.951891,
            32.17328
          ],
          [
            34.948183,
            32.170465
          ],
          [
            34.94707,
            32.169412
          ],
          [
            34.94017,
            32.161981
          ],
          [
            34.939092,
            32.160536
          ],
          [
            34.938152,
            32.158989
          ],
          [
            34.937037,
            32.156505
          ],
          [
            34.936357,
            32.153979
          ],
          [
            34.932898,
            32.134359
          ],
          [
            34.93274,
            32.132263
          ],
          [
            34.932862,
            32.13065
          ],
          [
            34.933756,
            32.126097
          ],
          [
            34.934364,
            32.123667
          ],
          [
            34.934459,
            32.122844
          ],
          [
            34.934416,
            32.11369
          ],
          [
            34.935144,
            32.109713
          ],
          [
            34.935167,
            32.107881
          ],
          [
            34.934551,
            32.09939
          ],
          [
            34.932679,
            32.084074
          ],
          [
            34.931996,
            32.079763
          ],
          [
            34.931857,
            32.077971
          ],
          [
            34.933003,
            32.06798
          ],
          [
            34.933605,
            32.065039
          ],
          [
            34.936053,
            32.04544
          ],
          [
            34.936091,
            32.043967
          ],
          [
            34.936018,
            32.043293
          ],
          [
            34.93552,
            32.041059
          ],
          [
            34.934525,
            32.038615
          ],
          [
            34.93263,
            32.035653
          ],
          [
            34.931406,
            32.033841
          ],
          [
            34.930564,
            32.032789
          ],
          [
            34.930001,
            32.031852
          ],
          [
            34.92758,
            32.025117
          ],
          [
            34.927163,
            32.023651
          ],
          [
            34.926968,
            32.023294
          ],
          [
            34.925688,
            32.021417
          ],
          [
            34.924373,
            32.019877
          ],
          [
            34.918605,
            32.014715
          ],
          [
            34.91728,
            32.013191
          ],
          [
            34.915277,
            32.009844
          ],
          [
            34.910096,
            31.999412
          ],
          [
            34.907158,
            31.99164
          ],
          [
            34.9034,
            31.984396
          ],
          [
            34.901981,
            31.981298
          ],
          [
            34.901534,
            31.979225
          ],
          [
            34.901195,
            31.971752
          ],
          [
            34.901086,
            31.970985
          ],
          [
            34.90092,
            31.97033
          ],
          [
            34.898269,
            31.963742
          ],
          [
            34.897341,
            31.961762
          ],
          [
            34.896654,
            31.960822
          ],
          [
            34.895762,
            31.960066
          ],
          [
            34.881433,
            31.950013
          ],
          [
            34.878549,
            31.948103
          ],
          [
            34.875598,
            31.945757
          ]
        ]
      },
      "properties": {
        "route_id": "eastern-railway",
        "sequence": 5,
        "from": "Qalqilya",
        "to": "Lydda (Lod)",
        "from_id": "qalqilya",
        "to_id": "lydda-lod",
        "geometry_status": "surveyed",
        "geometry_source": "osm",
        "corridor_confidence": "medium",
        "connection_status": "documented",
        "source_ids": [
          "osm"
        ]
      }
    }
  ]
}
