{
  "type": "FeatureCollection",
  "route": {
    "route_id": "haifa-beirut-tripoli",
    "name": "Haifa-Beirut-Tripoli Railway (HBT)",
    "name_arabic": "سكة حديد حيفا-بيروت-طرابلس",
    "countries": "Israel, Lebanon",
    "gauge_mm": 1435,
    "year_opened": 1942,
    "era": "historic",
    "color": "#b45309",
    "corridor_confidence": "medium",
    "description": "WWII coastal military line; only Nahariya-Haifa survives",
    "notes": "Built astonishingly fast (~176 miles completed 20 Dec 1942, ~6 months early); standard gauge throughout.  [route] Coast-hugging alignment south->north: Haifa, Acre, Nahariya, Ras al-Naqoura (the border headland / Rosh HaNikra), Tyre, Sidon, Beirut, Jbeil (Byblos), Chekka, Tripoli. The Haifa-Acre section was dual-gauge (also 1,050 mm).  [connections] Meets the Tripoli-Homs line at Tripoli and, via Haifa/Lydda, the Sinai Military Railway toward Egypt — together these traced the ephemeral WWII standard-gauge corridor from Egypt toward Turkey.  [survival] Only the Nahariya-Haifa section survives and still operates (Israel Railways); the Lebanese coastal section was largely lifted, and the 1948 partition severed the line at Ras al-Naqoura.",
    "history": "A WWII standard-gauge (1,435 mm) military railway hugging the Mediterranean coast, built Dec 1941-Dec 1942 by the South African Engineering Corps (Haifa-Beirut) and the Australian Railway Construction & Maintenance Group (Beirut-Tripoli), with African Auxiliary Pioneers and up to 8,000 local labourers. The ~176-mile line was completed on 20 December 1942, about six months ahead of schedule; General Alexander drove the final spike at Nahr el-Kelb.",
    "verification_status": "unverified",
    "source_ids": [
      "awm_hbt",
      "levantrain_compilation",
      "levantrain_system",
      "wp_lebanon",
      "wp_palestine_rw"
    ]
  },
  "features": [
    {
      "type": "Feature",
      "geometry": {
        "type": "LineString",
        "coordinates": [
          [
            34.99,
            32.819
          ],
          [
            35.08,
            32.928
          ]
        ]
      },
      "properties": {
        "route_id": "haifa-beirut-tripoli",
        "sequence": 1,
        "from": "Haifa",
        "to": "Acre",
        "from_id": "haifa",
        "to_id": "acre",
        "geometry_status": "schematic",
        "geometry_source": "schematic",
        "corridor_confidence": "high",
        "connection_status": "documented"
      }
    },
    {
      "type": "Feature",
      "geometry": {
        "type": "LineString",
        "coordinates": [
          [
            35.084225,
            32.92299
          ],
          [
            35.084354,
            32.921206
          ],
          [
            35.08439,
            32.923385
          ],
          [
            35.084149,
            32.925099
          ],
          [
            35.081163,
            32.933397
          ],
          [
            35.080805,
            32.934794
          ],
          [
            35.08065,
            32.93647
          ],
          [
            35.080965,
            32.938611
          ],
          [
            35.086226,
            32.961064
          ],
          [
            35.086435,
            32.962241
          ],
          [
            35.08655,
            32.963751
          ],
          [
            35.086527,
            32.96486
          ],
          [
            35.08564,
            32.973165
          ],
          [
            35.085727,
            32.975165
          ],
          [
            35.087847,
            32.982794
          ],
          [
            35.088299,
            32.983729
          ],
          [
            35.091917,
            32.988834
          ],
          [
            35.09281,
            32.989907
          ],
          [
            35.095881,
            32.993157
          ],
          [
            35.096441,
            32.993967
          ],
          [
            35.096842,
            32.994792
          ],
          [
            35.097136,
            32.995827
          ],
          [
            35.098523,
            33.003945
          ],
          [
            35.098898,
            33.005589
          ],
          [
            35.099319,
            33.006923
          ],
          [
            35.099419,
            33.007738
          ],
          [
            35.099401,
            33.009295
          ]
        ]
      },
      "properties": {
        "route_id": "haifa-beirut-tripoli",
        "sequence": 2,
        "from": "Acre",
        "to": "Nahariya",
        "from_id": "acre",
        "to_id": "nahariya",
        "geometry_status": "surveyed",
        "geometry_source": "osm",
        "corridor_confidence": "high",
        "connection_status": "documented",
        "source_ids": [
          "osm"
        ]
      }
    },
    {
      "type": "Feature",
      "geometry": {
        "type": "LineString",
        "coordinates": [
          [
            35.099401,
            33.009295
          ],
          [
            35.099162,
            33.016615
          ],
          [
            35.098785,
            33.018742
          ],
          [
            35.097271,
            33.024422
          ],
          [
            35.097265,
            33.025114
          ],
          [
            35.097469,
            33.026365
          ],
          [
            35.097851,
            33.027409
          ],
          [
            35.098239,
            33.028089
          ],
          [
            35.100653,
            33.031219
          ],
          [
            35.101743,
            33.033558
          ],
          [
            35.10418,
            33.040206
          ],
          [
            35.104643,
            33.042048
          ],
          [
            35.104639,
            33.042876
          ],
          [
            35.103884,
            33.046743
          ],
          [
            35.103988,
            33.048741
          ],
          [
            35.104724,
            33.054547
          ],
          [
            35.106077,
            33.062017
          ],
          [
            35.105996,
            33.068112
          ],
          [
            35.106307,
            33.073411
          ],
          [
            35.106297,
            33.075161
          ],
          [
            35.106535,
            33.07613
          ],
          [
            35.106527,
            33.076715
          ],
          [
            35.10686,
            33.07911
          ],
          [
            35.106691,
            33.081853
          ],
          [
            35.106144,
            33.085009
          ],
          [
            35.106263,
            33.087878
          ],
          [
            35.106405,
            33.089051
          ],
          [
            35.106639,
            33.089571
          ],
          [
            35.106674,
            33.090191
          ]
        ]
      },
      "properties": {
        "route_id": "haifa-beirut-tripoli",
        "sequence": 3,
        "from": "Nahariya",
        "to": "Ras al-Naqoura",
        "from_id": "nahariya",
        "to_id": "ras-al-naqoura",
        "geometry_status": "surveyed",
        "geometry_source": "osm",
        "corridor_confidence": "medium",
        "connection_status": "inferred",
        "source_ids": [
          "osm"
        ]
      }
    },
    {
      "type": "Feature",
      "geometry": {
        "type": "LineString",
        "coordinates": [
          [
            35.106674,
            33.090191
          ],
          [
            35.10665,
            33.091212
          ],
          [
            35.106388,
            33.09179
          ],
          [
            35.1061,
            33.092133
          ],
          [
            35.104905,
            33.092559
          ],
          [
            35.104468,
            33.092895
          ],
          [
            35.104133,
            33.093933
          ],
          [
            35.104138,
            33.094528
          ],
          [
            35.104962,
            33.096624
          ],
          [
            35.107172,
            33.09983
          ],
          [
            35.107462,
            33.10048
          ],
          [
            35.108641,
            33.104767
          ],
          [
            35.110925,
            33.10765
          ],
          [
            35.112894,
            33.10991
          ],
          [
            35.113324,
            33.110775
          ],
          [
            35.113442,
            33.111844
          ],
          [
            35.113689,
            33.112224
          ],
          [
            35.114553,
            33.112761
          ],
          [
            35.115562,
            33.113696
          ],
          [
            35.116082,
            33.114016
          ],
          [
            35.121456,
            33.115805
          ],
          [
            35.125513,
            33.117532
          ],
          [
            35.126966,
            33.11835
          ],
          [
            35.129882,
            33.119334
          ],
          [
            35.132884,
            33.12169
          ],
          [
            35.133459,
            33.121968
          ],
          [
            35.136374,
            33.123978
          ],
          [
            35.137331,
            33.124485
          ],
          [
            35.139107,
            33.125176
          ],
          [
            35.143892,
            33.125694
          ],
          [
            35.144375,
            33.125904
          ],
          [
            35.144802,
            33.12628
          ],
          [
            35.145306,
            33.126922
          ],
          [
            35.146299,
            33.128524
          ],
          [
            35.146826,
            33.128909
          ],
          [
            35.147647,
            33.129206
          ],
          [
            35.149043,
            33.130296
          ],
          [
            35.150545,
            33.131994
          ],
          [
            35.150885,
            33.132602
          ],
          [
            35.151333,
            33.134168
          ],
          [
            35.151766,
            33.134744
          ],
          [
            35.152594,
            33.136375
          ],
          [
            35.153932,
            33.137747
          ],
          [
            35.154433,
            33.138872
          ],
          [
            35.154846,
            33.1411
          ],
          [
            35.156063,
            33.143926
          ],
          [
            35.156678,
            33.144403
          ],
          [
            35.15845,
            33.144783
          ],
          [
            35.158962,
            33.145076
          ],
          [
            35.159495,
            33.145742
          ],
          [
            35.160387,
            33.147443
          ],
          [
            35.163276,
            33.154549
          ],
          [
            35.16396,
            33.155615
          ],
          [
            35.165785,
            33.157683
          ],
          [
            35.166271,
            33.158418
          ],
          [
            35.167363,
            33.161814
          ],
          [
            35.167725,
            33.162455
          ],
          [
            35.16823,
            33.1629
          ],
          [
            35.169611,
            33.163362
          ],
          [
            35.175942,
            33.162826
          ],
          [
            35.178074,
            33.163134
          ],
          [
            35.179808,
            33.163933
          ],
          [
            35.184139,
            33.166382
          ],
          [
            35.18635,
            33.167831
          ],
          [
            35.186931,
            33.168622
          ],
          [
            35.198892,
            33.190378
          ],
          [
            35.199825,
            33.191588
          ],
          [
            35.200264,
            33.191919
          ],
          [
            35.201606,
            33.193593
          ],
          [
            35.201991,
            33.193616
          ],
          [
            35.204956,
            33.1968
          ],
          [
            35.205652,
            33.197773
          ],
          [
            35.206051,
            33.198609
          ],
          [
            35.214895,
            33.231007
          ],
          [
            35.216965,
            33.235297
          ],
          [
            35.217364,
            33.235909
          ],
          [
            35.217703,
            33.236943
          ],
          [
            35.217789,
            33.23789
          ],
          [
            35.217755,
            33.239198
          ],
          [
            35.216993,
            33.24394
          ],
          [
            35.216319,
            33.249072
          ],
          [
            35.214302,
            33.254767
          ],
          [
            35.213,
            33.257872
          ],
          [
            35.212673,
            33.264468
          ],
          [
            35.211608,
            33.26902
          ],
          [
            35.210587,
            33.272493
          ]
        ]
      },
      "properties": {
        "route_id": "haifa-beirut-tripoli",
        "sequence": 4,
        "from": "Ras al-Naqoura",
        "to": "Tyre",
        "from_id": "ras-al-naqoura",
        "to_id": "tyre",
        "geometry_status": "surveyed",
        "geometry_source": "osm",
        "corridor_confidence": "medium",
        "connection_status": "inferred",
        "source_ids": [
          "osm"
        ]
      }
    },
    {
      "type": "Feature",
      "geometry": {
        "type": "LineString",
        "coordinates": [
          [
            35.210587,
            33.272493
          ],
          [
            35.210596,
            33.274225
          ],
          [
            35.210903,
            33.275733
          ],
          [
            35.211698,
            33.276947
          ],
          [
            35.212469,
            33.277883
          ],
          [
            35.215974,
            33.281344
          ],
          [
            35.218259,
            33.284065
          ],
          [
            35.219221,
            33.285787
          ],
          [
            35.222347,
            33.29395
          ],
          [
            35.223161,
            33.295335
          ],
          [
            35.226954,
            33.300152
          ],
          [
            35.228157,
            33.301388
          ],
          [
            35.23202,
            33.304885
          ],
          [
            35.233252,
            33.306421
          ],
          [
            35.234942,
            33.30919
          ],
          [
            35.24569,
            33.328392
          ],
          [
            35.247347,
            33.331578
          ],
          [
            35.250033,
            33.337858
          ],
          [
            35.251089,
            33.340072
          ],
          [
            35.251336,
            33.340786
          ],
          [
            35.251409,
            33.34133
          ],
          [
            35.251349,
            33.342069
          ],
          [
            35.251226,
            33.342357
          ],
          [
            35.250552,
            33.34334
          ],
          [
            35.248728,
            33.344925
          ],
          [
            35.248249,
            33.345746
          ],
          [
            35.248157,
            33.346568
          ],
          [
            35.248416,
            33.349421
          ],
          [
            35.248937,
            33.351197
          ],
          [
            35.249622,
            33.355497
          ],
          [
            35.249909,
            33.356696
          ],
          [
            35.250224,
            33.357718
          ],
          [
            35.256578,
            33.370452
          ],
          [
            35.257457,
            33.372736
          ],
          [
            35.260495,
            33.387411
          ],
          [
            35.260961,
            33.39083
          ],
          [
            35.261959,
            33.396076
          ],
          [
            35.262549,
            33.39869
          ],
          [
            35.263154,
            33.400921
          ],
          [
            35.267123,
            33.411731
          ],
          [
            35.267221,
            33.412659
          ],
          [
            35.267085,
            33.413363
          ],
          [
            35.266413,
            33.415153
          ],
          [
            35.266308,
            33.41639
          ],
          [
            35.267628,
            33.420998
          ],
          [
            35.267802,
            33.42235
          ],
          [
            35.268193,
            33.423461
          ],
          [
            35.269947,
            33.42717
          ],
          [
            35.271399,
            33.429832
          ],
          [
            35.272379,
            33.431273
          ],
          [
            35.272661,
            33.432413
          ],
          [
            35.273336,
            33.434084
          ],
          [
            35.273738,
            33.435383
          ],
          [
            35.274346,
            33.438009
          ],
          [
            35.274642,
            33.438783
          ],
          [
            35.274996,
            33.439499
          ],
          [
            35.276691,
            33.441461
          ],
          [
            35.277264,
            33.442307
          ],
          [
            35.277887,
            33.444195
          ],
          [
            35.278326,
            33.445899
          ],
          [
            35.278705,
            33.446604
          ],
          [
            35.279186,
            33.447278
          ],
          [
            35.282621,
            33.451221
          ],
          [
            35.28507,
            33.455144
          ],
          [
            35.28608,
            33.457035
          ],
          [
            35.286843,
            33.458096
          ],
          [
            35.287711,
            33.459036
          ],
          [
            35.288826,
            33.459902
          ],
          [
            35.289929,
            33.460529
          ],
          [
            35.290748,
            33.460854
          ],
          [
            35.298966,
            33.463437
          ],
          [
            35.300412,
            33.464129
          ],
          [
            35.304695,
            33.467261
          ],
          [
            35.305851,
            33.467965
          ],
          [
            35.306937,
            33.468494
          ],
          [
            35.313504,
            33.470641
          ],
          [
            35.314932,
            33.471253
          ],
          [
            35.316213,
            33.47214
          ],
          [
            35.322648,
            33.47763
          ],
          [
            35.323552,
            33.478542
          ],
          [
            35.32492,
            33.480404
          ],
          [
            35.330303,
            33.488158
          ],
          [
            35.339084,
            33.500484
          ],
          [
            35.340551,
            33.501858
          ],
          [
            35.341617,
            33.50258
          ],
          [
            35.345679,
            33.504491
          ],
          [
            35.348396,
            33.505612
          ],
          [
            35.349748,
            33.506473
          ],
          [
            35.351825,
            33.508341
          ],
          [
            35.355914,
            33.512545
          ],
          [
            35.360344,
            33.516893
          ],
          [
            35.362691,
            33.519565
          ],
          [
            35.363185,
            33.520505
          ],
          [
            35.36388,
            33.522307
          ],
          [
            35.366033,
            33.52864
          ],
          [
            35.36925,
            33.533638
          ],
          [
            35.371158,
            33.536274
          ],
          [
            35.376094,
            33.544827
          ],
          [
            35.376253,
            33.545606
          ],
          [
            35.376431,
            33.548703
          ],
          [
            35.376594,
            33.549327
          ],
          [
            35.376986,
            33.550052
          ],
          [
            35.378621,
            33.551961
          ],
          [
            35.379366,
            33.553012
          ],
          [
            35.379739,
            33.553974
          ],
          [
            35.37992,
            33.555164
          ],
          [
            35.380143,
            33.558401
          ],
          [
            35.380436,
            33.560005
          ]
        ]
      },
      "properties": {
        "route_id": "haifa-beirut-tripoli",
        "sequence": 5,
        "from": "Tyre",
        "to": "Sidon",
        "from_id": "tyre",
        "to_id": "sidon",
        "geometry_status": "surveyed",
        "geometry_source": "osm",
        "corridor_confidence": "medium",
        "connection_status": "inferred",
        "source_ids": [
          "osm"
        ]
      }
    },
    {
      "type": "Feature",
      "geometry": {
        "type": "LineString",
        "coordinates": [
          [
            35.380436,
            33.560005
          ],
          [
            35.38172,
            33.565216
          ],
          [
            35.382605,
            33.567271
          ],
          [
            35.387069,
            33.576343
          ],
          [
            35.387403,
            33.57775
          ],
          [
            35.387557,
            33.579994
          ],
          [
            35.38789,
            33.581697
          ],
          [
            35.388272,
            33.582398
          ],
          [
            35.388952,
            33.583114
          ],
          [
            35.392284,
            33.585941
          ],
          [
            35.392797,
            33.586937
          ],
          [
            35.392953,
            33.587437
          ],
          [
            35.392977,
            33.590348
          ],
          [
            35.392872,
            33.590698
          ],
          [
            35.389545,
            33.595919
          ],
          [
            35.389288,
            33.596816
          ],
          [
            35.389263,
            33.598425
          ],
          [
            35.388517,
            33.604223
          ],
          [
            35.388665,
            33.604938
          ],
          [
            35.388961,
            33.60555
          ],
          [
            35.389857,
            33.606498
          ],
          [
            35.390396,
            33.606783
          ],
          [
            35.391539,
            33.607102
          ],
          [
            35.394656,
            33.607337
          ],
          [
            35.395438,
            33.607495
          ],
          [
            35.396496,
            33.608137
          ],
          [
            35.397006,
            33.608702
          ],
          [
            35.397489,
            33.609493
          ],
          [
            35.399141,
            33.612698
          ],
          [
            35.399676,
            33.613877
          ],
          [
            35.400183,
            33.615453
          ],
          [
            35.400446,
            33.616636
          ],
          [
            35.400509,
            33.617849
          ],
          [
            35.399472,
            33.620469
          ],
          [
            35.399445,
            33.621399
          ],
          [
            35.399243,
            33.622061
          ],
          [
            35.39906,
            33.623331
          ],
          [
            35.399781,
            33.626683
          ],
          [
            35.399807,
            33.630182
          ],
          [
            35.399415,
            33.633511
          ],
          [
            35.399472,
            33.634141
          ],
          [
            35.399851,
            33.635267
          ],
          [
            35.399953,
            33.636247
          ],
          [
            35.400628,
            33.638471
          ],
          [
            35.400602,
            33.638917
          ],
          [
            35.400146,
            33.641287
          ],
          [
            35.400195,
            33.643199
          ],
          [
            35.400117,
            33.643543
          ],
          [
            35.399029,
            33.644745
          ],
          [
            35.39846,
            33.645694
          ],
          [
            35.398212,
            33.646624
          ],
          [
            35.398186,
            33.647053
          ],
          [
            35.398295,
            33.64751
          ],
          [
            35.398546,
            33.648021
          ],
          [
            35.398895,
            33.648403
          ],
          [
            35.399353,
            33.648673
          ],
          [
            35.400732,
            33.648946
          ],
          [
            35.402903,
            33.648786
          ],
          [
            35.40706,
            33.649285
          ],
          [
            35.411821,
            33.650551
          ],
          [
            35.413733,
            33.651517
          ],
          [
            35.415416,
            33.65355
          ],
          [
            35.417235,
            33.658752
          ],
          [
            35.417514,
            33.660199
          ],
          [
            35.417704,
            33.662568
          ],
          [
            35.417801,
            33.668961
          ],
          [
            35.417711,
            33.670627
          ],
          [
            35.41809,
            33.676057
          ],
          [
            35.418174,
            33.678598
          ],
          [
            35.418453,
            33.680308
          ],
          [
            35.418907,
            33.682155
          ],
          [
            35.419098,
            33.684368
          ],
          [
            35.418816,
            33.685143
          ],
          [
            35.418517,
            33.685654
          ],
          [
            35.417367,
            33.686611
          ],
          [
            35.41684,
            33.687172
          ],
          [
            35.416646,
            33.687678
          ],
          [
            35.416562,
            33.688354
          ],
          [
            35.416663,
            33.688907
          ],
          [
            35.419901,
            33.693191
          ],
          [
            35.421543,
            33.694505
          ],
          [
            35.422899,
            33.694952
          ],
          [
            35.42758,
            33.695474
          ],
          [
            35.428098,
            33.695648
          ],
          [
            35.428884,
            33.696286
          ],
          [
            35.429659,
            33.696525
          ],
          [
            35.432025,
            33.696764
          ],
          [
            35.433193,
            33.697283
          ],
          [
            35.436321,
            33.698233
          ],
          [
            35.439064,
            33.70035
          ],
          [
            35.439789,
            33.701474
          ],
          [
            35.440185,
            33.702339
          ],
          [
            35.44377,
            33.705114
          ],
          [
            35.444656,
            33.706189
          ],
          [
            35.444912,
            33.706993
          ],
          [
            35.444377,
            33.712545
          ],
          [
            35.444148,
            33.713676
          ],
          [
            35.444067,
            33.715054
          ],
          [
            35.444174,
            33.715801
          ],
          [
            35.444444,
            33.72316
          ],
          [
            35.444685,
            33.726277
          ],
          [
            35.444827,
            33.727445
          ],
          [
            35.445457,
            33.728629
          ],
          [
            35.445972,
            33.729926
          ],
          [
            35.446257,
            33.731284
          ],
          [
            35.44661,
            33.736666
          ],
          [
            35.447114,
            33.739959
          ],
          [
            35.447623,
            33.741756
          ],
          [
            35.44941,
            33.74686
          ],
          [
            35.452358,
            33.751683
          ],
          [
            35.45436,
            33.754525
          ],
          [
            35.456603,
            33.75836
          ],
          [
            35.459624,
            33.762962
          ],
          [
            35.461737,
            33.764391
          ],
          [
            35.462454,
            33.765315
          ],
          [
            35.464668,
            33.767441
          ],
          [
            35.465114,
            33.768083
          ],
          [
            35.466276,
            33.771639
          ],
          [
            35.467143,
            33.773796
          ],
          [
            35.468251,
            33.775348
          ],
          [
            35.470182,
            33.776965
          ],
          [
            35.471613,
            33.779485
          ],
          [
            35.472476,
            33.781238
          ],
          [
            35.473207,
            33.782386
          ],
          [
            35.476556,
            33.787198
          ],
          [
            35.478918,
            33.79024
          ],
          [
            35.483304,
            33.796791
          ],
          [
            35.48442,
            33.798608
          ],
          [
            35.485827,
            33.801816
          ],
          [
            35.488034,
            33.805246
          ],
          [
            35.491238,
            33.809222
          ],
          [
            35.492208,
            33.810065
          ],
          [
            35.493301,
            33.81065
          ],
          [
            35.497841,
            33.812488
          ],
          [
            35.501854,
            33.813854
          ],
          [
            35.505659,
            33.814809
          ],
          [
            35.507369,
            33.815052
          ],
          [
            35.508486,
            33.814951
          ],
          [
            35.510878,
            33.815061
          ],
          [
            35.510987,
            33.814931
          ],
          [
            35.512954,
            33.815255
          ],
          [
            35.513926,
            33.815961
          ],
          [
            35.515436,
            33.817557
          ],
          [
            35.516596,
            33.818947
          ],
          [
            35.516985,
            33.819855
          ],
          [
            35.517519,
            33.822148
          ],
          [
            35.517882,
            33.825902
          ],
          [
            35.517731,
            33.829889
          ],
          [
            35.518373,
            33.831987
          ],
          [
            35.518896,
            33.832891
          ],
          [
            35.519052,
            33.833559
          ],
          [
            35.519484,
            33.834372
          ],
          [
            35.517954,
            33.835461
          ],
          [
            35.517551,
            33.836635
          ],
          [
            35.517346,
            33.838343
          ],
          [
            35.518779,
            33.840017
          ],
          [
            35.519338,
            33.841309
          ],
          [
            35.51958,
            33.843972
          ],
          [
            35.520437,
            33.847014
          ],
          [
            35.521353,
            33.848698
          ],
          [
            35.522033,
            33.849364
          ],
          [
            35.522518,
            33.850083
          ],
          [
            35.522979,
            33.851172
          ],
          [
            35.522931,
            33.852927
          ],
          [
            35.522639,
            33.854259
          ],
          [
            35.522032,
            33.855373
          ],
          [
            35.522007,
            33.85622
          ],
          [
            35.522341,
            33.8575
          ],
          [
            35.524437,
            33.861651
          ],
          [
            35.525603,
            33.863366
          ],
          [
            35.526453,
            33.865141
          ],
          [
            35.526429,
            33.865691
          ],
          [
            35.526258,
            33.866377
          ],
          [
            35.526331,
            33.867042
          ],
          [
            35.527133,
            33.869504
          ],
          [
            35.527254,
            33.870512
          ],
          [
            35.526055,
            33.875561
          ],
          [
            35.526119,
            33.876182
          ],
          [
            35.526462,
            33.876568
          ],
          [
            35.526862,
            33.877818
          ],
          [
            35.527439,
            33.880673
          ],
          [
            35.527462,
            33.88184
          ],
          [
            35.527954,
            33.882782
          ],
          [
            35.528734,
            33.884909
          ],
          [
            35.530652,
            33.886
          ],
          [
            35.531309,
            33.886595
          ],
          [
            35.531517,
            33.887374
          ],
          [
            35.531484,
            33.887803
          ],
          [
            35.531157,
            33.888671
          ],
          [
            35.531292,
            33.88932
          ],
          [
            35.531321,
            33.890121
          ],
          [
            35.532058,
            33.892209
          ],
          [
            35.532672,
            33.893015
          ],
          [
            35.53302,
            33.893677
          ],
          [
            35.533186,
            33.894833
          ],
          [
            35.533218,
            33.895416
          ],
          [
            35.53303,
            33.896432
          ],
          [
            35.532791,
            33.896708
          ],
          [
            35.53199,
            33.897234
          ],
          [
            35.530779,
            33.897722
          ],
          [
            35.526574,
            33.898759
          ],
          [
            35.523449,
            33.898489
          ]
        ]
      },
      "properties": {
        "route_id": "haifa-beirut-tripoli",
        "sequence": 6,
        "from": "Sidon",
        "to": "Beirut",
        "from_id": "sidon",
        "to_id": "beirut",
        "geometry_status": "surveyed",
        "geometry_source": "osm",
        "corridor_confidence": "medium",
        "connection_status": "inferred",
        "source_ids": [
          "osm"
        ]
      }
    },
    {
      "type": "Feature",
      "geometry": {
        "type": "LineString",
        "coordinates": [
          [
            35.523449,
            33.898489
          ],
          [
            35.526574,
            33.898759
          ],
          [
            35.530779,
            33.897722
          ],
          [
            35.53199,
            33.897234
          ],
          [
            35.532791,
            33.896708
          ],
          [
            35.53303,
            33.896432
          ],
          [
            35.533177,
            33.895784
          ],
          [
            35.533186,
            33.894833
          ],
          [
            35.53302,
            33.893677
          ],
          [
            35.532672,
            33.893015
          ],
          [
            35.532058,
            33.892209
          ],
          [
            35.531321,
            33.890121
          ],
          [
            35.531292,
            33.88932
          ],
          [
            35.531157,
            33.888671
          ],
          [
            35.531484,
            33.887803
          ],
          [
            35.531517,
            33.887374
          ],
          [
            35.531309,
            33.886595
          ],
          [
            35.530652,
            33.886
          ],
          [
            35.528734,
            33.884909
          ],
          [
            35.527954,
            33.882782
          ],
          [
            35.527462,
            33.88184
          ],
          [
            35.527439,
            33.880673
          ],
          [
            35.526637,
            33.877069
          ],
          [
            35.526814,
            33.876827
          ],
          [
            35.526462,
            33.876036
          ],
          [
            35.526451,
            33.875692
          ],
          [
            35.526618,
            33.875256
          ],
          [
            35.526991,
            33.874887
          ],
          [
            35.527462,
            33.874659
          ],
          [
            35.52824,
            33.874608
          ],
          [
            35.529484,
            33.874915
          ],
          [
            35.530595,
            33.875435
          ],
          [
            35.531533,
            33.876178
          ],
          [
            35.531757,
            33.876892
          ],
          [
            35.531708,
            33.878824
          ],
          [
            35.532773,
            33.88099
          ],
          [
            35.532862,
            33.883467
          ],
          [
            35.533286,
            33.884678
          ],
          [
            35.53382,
            33.885646
          ],
          [
            35.534158,
            33.88735
          ],
          [
            35.535428,
            33.889285
          ],
          [
            35.53618,
            33.889944
          ],
          [
            35.536851,
            33.89017
          ],
          [
            35.537602,
            33.890235
          ],
          [
            35.539089,
            33.889945
          ],
          [
            35.539587,
            33.889931
          ],
          [
            35.540658,
            33.890218
          ],
          [
            35.542502,
            33.891392
          ],
          [
            35.544162,
            33.893087
          ],
          [
            35.544843,
            33.893665
          ],
          [
            35.545486,
            33.893949
          ],
          [
            35.546323,
            33.894088
          ],
          [
            35.550892,
            33.894216
          ],
          [
            35.551792,
            33.894381
          ],
          [
            35.561051,
            33.898672
          ],
          [
            35.566301,
            33.900586
          ],
          [
            35.567532,
            33.901127
          ],
          [
            35.570948,
            33.903003
          ],
          [
            35.572907,
            33.904353
          ],
          [
            35.576855,
            33.90773
          ],
          [
            35.579356,
            33.910407
          ],
          [
            35.581375,
            33.913404
          ],
          [
            35.58311,
            33.916349
          ],
          [
            35.58381,
            33.917598
          ],
          [
            35.585273,
            33.920626
          ],
          [
            35.58728,
            33.927862
          ],
          [
            35.588544,
            33.931701
          ],
          [
            35.591428,
            33.94435
          ],
          [
            35.591967,
            33.946119
          ],
          [
            35.592278,
            33.947577
          ],
          [
            35.592298,
            33.951373
          ],
          [
            35.592657,
            33.952805
          ],
          [
            35.593127,
            33.953987
          ],
          [
            35.593657,
            33.9549
          ],
          [
            35.594141,
            33.955337
          ],
          [
            35.594763,
            33.955653
          ],
          [
            35.595183,
            33.955819
          ],
          [
            35.598767,
            33.956594
          ],
          [
            35.599754,
            33.957418
          ],
          [
            35.60141,
            33.959042
          ],
          [
            35.602549,
            33.960404
          ],
          [
            35.603584,
            33.961845
          ],
          [
            35.604251,
            33.963701
          ],
          [
            35.605291,
            33.965692
          ],
          [
            35.605553,
            33.966589
          ],
          [
            35.605651,
            33.967602
          ],
          [
            35.605891,
            33.968565
          ],
          [
            35.606193,
            33.969147
          ],
          [
            35.607429,
            33.971299
          ],
          [
            35.608316,
            33.972534
          ],
          [
            35.610226,
            33.97414
          ],
          [
            35.611255,
            33.975184
          ],
          [
            35.613136,
            33.977324
          ],
          [
            35.613794,
            33.978204
          ],
          [
            35.614128,
            33.978746
          ],
          [
            35.614615,
            33.980464
          ],
          [
            35.616023,
            33.984205
          ],
          [
            35.616693,
            33.984732
          ],
          [
            35.61779,
            33.985049
          ],
          [
            35.618898,
            33.984833
          ],
          [
            35.620601,
            33.984292
          ],
          [
            35.62327,
            33.983887
          ],
          [
            35.624248,
            33.983556
          ],
          [
            35.625143,
            33.982964
          ],
          [
            35.625589,
            33.982468
          ],
          [
            35.626091,
            33.981313
          ],
          [
            35.626556,
            33.980901
          ],
          [
            35.627041,
            33.980698
          ],
          [
            35.627926,
            33.980592
          ],
          [
            35.628868,
            33.980605
          ],
          [
            35.632213,
            33.980907
          ],
          [
            35.634481,
            33.981584
          ],
          [
            35.635338,
            33.982008
          ],
          [
            35.637502,
            33.983635
          ],
          [
            35.638754,
            33.984712
          ],
          [
            35.639389,
            33.985346
          ],
          [
            35.639831,
            33.986049
          ],
          [
            35.640616,
            33.987881
          ],
          [
            35.643367,
            33.992964
          ],
          [
            35.643769,
            33.994041
          ],
          [
            35.64389,
            33.996809
          ],
          [
            35.644697,
            33.999696
          ],
          [
            35.645596,
            34.004682
          ],
          [
            35.645712,
            34.007197
          ],
          [
            35.645039,
            34.010562
          ],
          [
            35.644689,
            34.011645
          ],
          [
            35.644188,
            34.012569
          ],
          [
            35.643315,
            34.013397
          ],
          [
            35.642784,
            34.013604
          ],
          [
            35.641539,
            34.013782
          ],
          [
            35.639964,
            34.013524
          ],
          [
            35.637862,
            34.012979
          ],
          [
            35.637046,
            34.01308
          ],
          [
            35.636274,
            34.013407
          ],
          [
            35.635833,
            34.013836
          ],
          [
            35.635452,
            34.014647
          ],
          [
            35.635306,
            34.01539
          ],
          [
            35.634888,
            34.016064
          ],
          [
            35.634454,
            34.016445
          ],
          [
            35.633925,
            34.01667
          ],
          [
            35.632521,
            34.016943
          ],
          [
            35.631566,
            34.017396
          ],
          [
            35.630335,
            34.018077
          ],
          [
            35.62929,
            34.018793
          ],
          [
            35.628665,
            34.019453
          ],
          [
            35.62815,
            34.020897
          ],
          [
            35.627447,
            34.022181
          ],
          [
            35.627232,
            34.022928
          ],
          [
            35.627214,
            34.023937
          ],
          [
            35.627529,
            34.025412
          ],
          [
            35.627959,
            34.026544
          ],
          [
            35.629045,
            34.028518
          ],
          [
            35.629388,
            34.029692
          ],
          [
            35.629286,
            34.030307
          ],
          [
            35.628991,
            34.030822
          ],
          [
            35.628024,
            34.031779
          ],
          [
            35.627357,
            34.032128
          ],
          [
            35.627007,
            34.032427
          ],
          [
            35.626519,
            34.033983
          ],
          [
            35.626193,
            34.034674
          ],
          [
            35.626115,
            34.035497
          ],
          [
            35.626273,
            34.036605
          ],
          [
            35.626863,
            34.037956
          ],
          [
            35.630832,
            34.042924
          ],
          [
            35.634527,
            34.04706
          ],
          [
            35.634966,
            34.047805
          ],
          [
            35.636058,
            34.05091
          ],
          [
            35.635954,
            34.052488
          ],
          [
            35.636479,
            34.053412
          ],
          [
            35.637049,
            34.054088
          ],
          [
            35.638408,
            34.054713
          ],
          [
            35.640252,
            34.056446
          ],
          [
            35.640888,
            34.056727
          ],
          [
            35.641632,
            34.05682
          ],
          [
            35.642204,
            34.057039
          ],
          [
            35.642685,
            34.057514
          ],
          [
            35.643162,
            34.058398
          ],
          [
            35.643518,
            34.059468
          ],
          [
            35.643604,
            34.060357
          ],
          [
            35.64346,
            34.062555
          ],
          [
            35.643798,
            34.063501
          ],
          [
            35.643927,
            34.064417
          ],
          [
            35.643825,
            34.065098
          ],
          [
            35.642945,
            34.067801
          ],
          [
            35.642941,
            34.068273
          ],
          [
            35.643436,
            34.07096
          ],
          [
            35.643336,
            34.071112
          ],
          [
            35.643773,
            34.072692
          ],
          [
            35.644139,
            34.073381
          ],
          [
            35.648765,
            34.078997
          ],
          [
            35.649123,
            34.080081
          ],
          [
            35.649016,
            34.081941
          ],
          [
            35.649444,
            34.08353
          ],
          [
            35.649481,
            34.084022
          ],
          [
            35.649708,
            34.08459
          ],
          [
            35.650237,
            34.085307
          ],
          [
            35.65089,
            34.085882
          ],
          [
            35.65137,
            34.086573
          ],
          [
            35.651502,
            34.087573
          ],
          [
            35.651059,
            34.090007
          ],
          [
            35.651605,
            34.091317
          ],
          [
            35.651697,
            34.091762
          ],
          [
            35.651652,
            34.093342
          ],
          [
            35.652789,
            34.095866
          ],
          [
            35.652813,
            34.096817
          ],
          [
            35.652494,
            34.097577
          ],
          [
            35.651946,
            34.098342
          ],
          [
            35.651702,
            34.098896
          ],
          [
            35.651646,
            34.099303
          ],
          [
            35.651818,
            34.100185
          ],
          [
            35.652068,
            34.10072
          ],
          [
            35.652468,
            34.103316
          ],
          [
            35.651944,
            34.106291
          ],
          [
            35.651891,
            34.107426
          ],
          [
            35.652237,
            34.109465
          ],
          [
            35.652554,
            34.110217
          ],
          [
            35.652683,
            34.110858
          ],
          [
            35.652566,
            34.111748
          ],
          [
            35.651575,
            34.115777
          ],
          [
            35.651284,
            34.116267
          ],
          [
            35.650656,
            34.1169
          ],
          [
            35.650334,
            34.117411
          ],
          [
            35.650208,
            34.117953
          ],
          [
            35.650392,
            34.119372
          ],
          [
            35.650172,
            34.120186
          ],
          [
            35.649743,
            34.120782
          ],
          [
            35.647193,
            34.123125
          ]
        ]
      },
      "properties": {
        "route_id": "haifa-beirut-tripoli",
        "sequence": 7,
        "from": "Beirut",
        "to": "Jbeil",
        "from_id": "beirut",
        "to_id": "jbeil",
        "geometry_status": "surveyed",
        "geometry_source": "osm",
        "corridor_confidence": "medium",
        "connection_status": "inferred",
        "source_ids": [
          "osm"
        ]
      }
    },
    {
      "type": "Feature",
      "geometry": {
        "type": "LineString",
        "coordinates": [
          [
            35.647193,
            34.123125
          ],
          [
            35.646816,
            34.123945
          ],
          [
            35.646788,
            34.124449
          ],
          [
            35.647161,
            34.126387
          ],
          [
            35.64718,
            34.127002
          ],
          [
            35.64624,
            34.13016
          ],
          [
            35.645725,
            34.13127
          ],
          [
            35.644329,
            34.133502
          ],
          [
            35.642671,
            34.135061
          ],
          [
            35.641966,
            34.136259
          ],
          [
            35.641649,
            34.136616
          ],
          [
            35.639417,
            34.13859
          ],
          [
            35.638687,
            34.139165
          ],
          [
            35.635494,
            34.141281
          ],
          [
            35.633423,
            34.14255
          ],
          [
            35.632331,
            34.143372
          ],
          [
            35.631967,
            34.144503
          ],
          [
            35.6314,
            34.145558
          ],
          [
            35.63051,
            34.146317
          ],
          [
            35.629791,
            34.146723
          ],
          [
            35.629202,
            34.147771
          ],
          [
            35.629117,
            34.148437
          ],
          [
            35.629297,
            34.149042
          ],
          [
            35.629721,
            34.149641
          ],
          [
            35.63128,
            34.150647
          ],
          [
            35.63171,
            34.151166
          ],
          [
            35.631718,
            34.151313
          ],
          [
            35.632052,
            34.151773
          ],
          [
            35.631975,
            34.152888
          ],
          [
            35.632086,
            34.153528
          ],
          [
            35.632525,
            34.15456
          ],
          [
            35.633573,
            34.156025
          ],
          [
            35.633823,
            34.15679
          ],
          [
            35.634483,
            34.160452
          ],
          [
            35.634605,
            34.161377
          ],
          [
            35.634481,
            34.161923
          ],
          [
            35.632992,
            34.164517
          ],
          [
            35.63282,
            34.165887
          ],
          [
            35.63205,
            34.16717
          ],
          [
            35.631682,
            34.167984
          ],
          [
            35.631701,
            34.168744
          ],
          [
            35.632331,
            34.170641
          ],
          [
            35.632301,
            34.171035
          ],
          [
            35.631728,
            34.172249
          ],
          [
            35.631468,
            34.173488
          ],
          [
            35.631602,
            34.174174
          ],
          [
            35.631829,
            34.174696
          ],
          [
            35.633047,
            34.176095
          ],
          [
            35.633504,
            34.176759
          ],
          [
            35.633693,
            34.177736
          ],
          [
            35.633609,
            34.179243
          ],
          [
            35.634241,
            34.180788
          ],
          [
            35.63456,
            34.183197
          ],
          [
            35.635816,
            34.186946
          ],
          [
            35.635856,
            34.187503
          ],
          [
            35.635184,
            34.191899
          ],
          [
            35.635255,
            34.192911
          ],
          [
            35.635499,
            34.193758
          ],
          [
            35.635717,
            34.195166
          ],
          [
            35.636493,
            34.196336
          ],
          [
            35.637211,
            34.196891
          ],
          [
            35.637703,
            34.197642
          ],
          [
            35.637785,
            34.198208
          ],
          [
            35.637457,
            34.199863
          ],
          [
            35.63749,
            34.200444
          ],
          [
            35.637773,
            34.201119
          ],
          [
            35.639437,
            34.203457
          ],
          [
            35.641051,
            34.205498
          ],
          [
            35.641521,
            34.205937
          ],
          [
            35.642251,
            34.206382
          ],
          [
            35.644087,
            34.206701
          ],
          [
            35.644933,
            34.207004
          ],
          [
            35.645852,
            34.207574
          ],
          [
            35.647295,
            34.208079
          ],
          [
            35.647903,
            34.208485
          ],
          [
            35.648521,
            34.209064
          ],
          [
            35.649107,
            34.210218
          ],
          [
            35.650366,
            34.212245
          ],
          [
            35.651682,
            34.213481
          ],
          [
            35.6523,
            34.214318
          ],
          [
            35.653923,
            34.217531
          ],
          [
            35.654778,
            34.219444
          ],
          [
            35.655993,
            34.221546
          ],
          [
            35.656275,
            34.222215
          ],
          [
            35.656262,
            34.222923
          ],
          [
            35.655697,
            34.225222
          ],
          [
            35.655678,
            34.225873
          ],
          [
            35.655991,
            34.226478
          ],
          [
            35.65726,
            34.227809
          ],
          [
            35.657443,
            34.228305
          ],
          [
            35.657574,
            34.229121
          ],
          [
            35.657581,
            34.229814
          ],
          [
            35.657414,
            34.230328
          ],
          [
            35.656634,
            34.231563
          ],
          [
            35.656461,
            34.232023
          ],
          [
            35.656444,
            34.232774
          ],
          [
            35.65692,
            34.234278
          ],
          [
            35.657304,
            34.235145
          ],
          [
            35.657855,
            34.235803
          ],
          [
            35.658928,
            34.236439
          ],
          [
            35.659642,
            34.237079
          ],
          [
            35.660387,
            34.23844
          ],
          [
            35.661651,
            34.239497
          ],
          [
            35.662844,
            34.24092
          ],
          [
            35.66326,
            34.241574
          ],
          [
            35.66342,
            34.242146
          ],
          [
            35.663406,
            34.242773
          ],
          [
            35.663193,
            34.243583
          ],
          [
            35.662503,
            34.245129
          ],
          [
            35.662052,
            34.246432
          ],
          [
            35.66017,
            34.249903
          ],
          [
            35.659909,
            34.250682
          ],
          [
            35.659848,
            34.251374
          ],
          [
            35.660022,
            34.252158
          ],
          [
            35.660939,
            34.253808
          ],
          [
            35.661289,
            34.254789
          ],
          [
            35.661255,
            34.255518
          ],
          [
            35.660232,
            34.257953
          ],
          [
            35.660009,
            34.258826
          ],
          [
            35.659557,
            34.262053
          ],
          [
            35.659523,
            34.262706
          ],
          [
            35.660384,
            34.266785
          ],
          [
            35.660319,
            34.267509
          ],
          [
            35.659743,
            34.268997
          ],
          [
            35.6593,
            34.269609
          ],
          [
            35.657784,
            34.271196
          ],
          [
            35.656602,
            34.2729
          ],
          [
            35.655975,
            34.27441
          ],
          [
            35.655956,
            34.275062
          ],
          [
            35.656135,
            34.276362
          ],
          [
            35.656417,
            34.27718
          ],
          [
            35.65697,
            34.278017
          ],
          [
            35.660522,
            34.282777
          ],
          [
            35.662068,
            34.283945
          ],
          [
            35.662877,
            34.284418
          ],
          [
            35.665274,
            34.285318
          ],
          [
            35.666828,
            34.286132
          ],
          [
            35.668449,
            34.28756
          ],
          [
            35.669345,
            34.288677
          ],
          [
            35.6706,
            34.290642
          ],
          [
            35.671522,
            34.292335
          ],
          [
            35.671999,
            34.292785
          ],
          [
            35.673439,
            34.293803
          ],
          [
            35.673807,
            34.294346
          ],
          [
            35.674095,
            34.295684
          ],
          [
            35.676488,
            34.298766
          ],
          [
            35.677184,
            34.302754
          ],
          [
            35.678688,
            34.308395
          ],
          [
            35.67987,
            34.310378
          ],
          [
            35.680208,
            34.310588
          ],
          [
            35.68548,
            34.31305
          ],
          [
            35.68817,
            34.313337
          ],
          [
            35.689313,
            34.313288
          ],
          [
            35.690622,
            34.312922
          ],
          [
            35.691887,
            34.312811
          ],
          [
            35.692567,
            34.312863
          ],
          [
            35.693699,
            34.312042
          ],
          [
            35.696205,
            34.310955
          ],
          [
            35.696573,
            34.31068
          ],
          [
            35.696869,
            34.310357
          ],
          [
            35.698034,
            34.308351
          ],
          [
            35.698603,
            34.307943
          ],
          [
            35.699525,
            34.307499
          ],
          [
            35.700099,
            34.307064
          ],
          [
            35.70125,
            34.305252
          ],
          [
            35.702047,
            34.304734
          ],
          [
            35.703794,
            34.304178
          ],
          [
            35.704645,
            34.304059
          ],
          [
            35.706648,
            34.304139
          ],
          [
            35.707611,
            34.304395
          ]
        ]
      },
      "properties": {
        "route_id": "haifa-beirut-tripoli",
        "sequence": 8,
        "from": "Jbeil",
        "to": "Chekka",
        "from_id": "jbeil",
        "to_id": "chekka",
        "geometry_status": "surveyed",
        "geometry_source": "osm",
        "corridor_confidence": "medium",
        "connection_status": "inferred",
        "source_ids": [
          "osm"
        ]
      }
    },
    {
      "type": "Feature",
      "geometry": {
        "type": "LineString",
        "coordinates": [
          [
            35.707611,
            34.304395
          ],
          [
            35.712055,
            34.306032
          ],
          [
            35.71529,
            34.307392
          ],
          [
            35.716927,
            34.308256
          ],
          [
            35.721452,
            34.311501
          ],
          [
            35.722215,
            34.312238
          ],
          [
            35.722826,
            34.31304
          ],
          [
            35.723727,
            34.314566
          ],
          [
            35.72596,
            34.317135
          ],
          [
            35.727776,
            34.320035
          ],
          [
            35.734412,
            34.331463
          ],
          [
            35.734563,
            34.33201
          ],
          [
            35.7345,
            34.332826
          ],
          [
            35.733963,
            34.333985
          ],
          [
            35.733959,
            34.334725
          ],
          [
            35.735019,
            34.341252
          ],
          [
            35.735028,
            34.343036
          ],
          [
            35.734811,
            34.344115
          ],
          [
            35.734465,
            34.347628
          ],
          [
            35.734661,
            34.351232
          ],
          [
            35.734575,
            34.352049
          ],
          [
            35.732988,
            34.359132
          ],
          [
            35.732982,
            34.359765
          ],
          [
            35.733156,
            34.360213
          ],
          [
            35.734532,
            34.361559
          ],
          [
            35.735685,
            34.363211
          ],
          [
            35.736114,
            34.36353
          ],
          [
            35.736935,
            34.363785
          ],
          [
            35.73773,
            34.36385
          ],
          [
            35.738665,
            34.36407
          ],
          [
            35.739318,
            34.364454
          ],
          [
            35.739815,
            34.365078
          ],
          [
            35.739983,
            34.365637
          ],
          [
            35.739782,
            34.366581
          ],
          [
            35.739353,
            34.367099
          ],
          [
            35.7385,
            34.367825
          ],
          [
            35.737849,
            34.368613
          ],
          [
            35.737509,
            34.369355
          ],
          [
            35.737496,
            34.369907
          ],
          [
            35.737744,
            34.370756
          ],
          [
            35.738125,
            34.37135
          ],
          [
            35.738793,
            34.371876
          ],
          [
            35.747279,
            34.376269
          ],
          [
            35.749649,
            34.376873
          ],
          [
            35.759805,
            34.379098
          ],
          [
            35.763019,
            34.379329
          ],
          [
            35.763638,
            34.379511
          ],
          [
            35.765262,
            34.380524
          ],
          [
            35.765912,
            34.380716
          ],
          [
            35.767353,
            34.380736
          ],
          [
            35.7685,
            34.38087
          ],
          [
            35.771865,
            34.381648
          ],
          [
            35.773538,
            34.381951
          ],
          [
            35.77539,
            34.382149
          ],
          [
            35.779474,
            34.383233
          ],
          [
            35.780233,
            34.383551
          ],
          [
            35.781311,
            34.384203
          ],
          [
            35.782235,
            34.384581
          ],
          [
            35.784024,
            34.385007
          ],
          [
            35.785189,
            34.385393
          ],
          [
            35.786598,
            34.386055
          ],
          [
            35.787533,
            34.386624
          ],
          [
            35.789042,
            34.387163
          ],
          [
            35.78984,
            34.387791
          ],
          [
            35.790853,
            34.389165
          ],
          [
            35.792296,
            34.390549
          ],
          [
            35.793784,
            34.391605
          ],
          [
            35.795001,
            34.392796
          ],
          [
            35.796407,
            34.393805
          ],
          [
            35.79777,
            34.395133
          ],
          [
            35.801207,
            34.398897
          ],
          [
            35.805731,
            34.401514
          ],
          [
            35.808665,
            34.402848
          ],
          [
            35.809731,
            34.403216
          ],
          [
            35.810774,
            34.403425
          ],
          [
            35.813413,
            34.404399
          ],
          [
            35.814532,
            34.405378
          ],
          [
            35.817345,
            34.407036
          ],
          [
            35.819828,
            34.408864
          ],
          [
            35.821137,
            34.410829
          ],
          [
            35.821853,
            34.412032
          ],
          [
            35.822707,
            34.413796
          ],
          [
            35.824308,
            34.416264
          ],
          [
            35.824671,
            34.417181
          ],
          [
            35.824709,
            34.417959
          ],
          [
            35.824296,
            34.420375
          ],
          [
            35.823442,
            34.422312
          ],
          [
            35.822947,
            34.423798
          ],
          [
            35.820405,
            34.432983
          ],
          [
            35.819111,
            34.436984
          ],
          [
            35.8188,
            34.438655
          ],
          [
            35.818834,
            34.439408
          ],
          [
            35.819029,
            34.440306
          ],
          [
            35.820295,
            34.442848
          ],
          [
            35.823009,
            34.447237
          ],
          [
            35.823485,
            34.447763
          ],
          [
            35.824279,
            34.448262
          ],
          [
            35.830191,
            34.449596
          ],
          [
            35.832164,
            34.450307
          ]
        ]
      },
      "properties": {
        "route_id": "haifa-beirut-tripoli",
        "sequence": 9,
        "from": "Chekka",
        "to": "Tripoli",
        "from_id": "chekka",
        "to_id": "tripoli",
        "geometry_status": "surveyed",
        "geometry_source": "osm",
        "corridor_confidence": "medium",
        "connection_status": "inferred",
        "source_ids": [
          "osm"
        ]
      }
    }
  ]
}
