{
  "type": "FeatureCollection",
  "route": {
    "route_id": "haifa-deraa",
    "name": "Haifa-Deraa Line",
    "name_arabic": "خط حيفا-درعا",
    "countries": "Israel, Jordan, Syria",
    "gauge_mm": 1050,
    "year_opened": 1905,
    "era": "historic",
    "color": "#b45309",
    "corridor_confidence": "high",
    "description": "Critical Mediterranean connection",
    "notes": "Inaugurated 15 Oct 1905; carried ~3/4 of Hejaz traffic despite being ~1/5 of construction.  [route] The full Hejaz branch to the Mediterranean; its western portion is the Jezreel Valley line. The 8 ORIGINAL 1905 stations were Haifa, Balad al-Sheikh, Kfar Yehoshua (Tel Shammam), Afula, Beit She’an, Gesher, Tzemah/Samakh and al-Hamma; the others are LATER halts (several founded after 1905 — e.g. Nesher 1925, Ein Harod 1921, HaSade 1934, Beit Yosef 1937), so treat them as additions, not original stops. Arlosorow Halt (1937) and a temporary 'Jordan Valley' halt (1936) are documented but not placed.  [gorge] The Samakh–Deraa eastern section (73 km, +529 m climb, 8 tunnels ~1,100 m, 329 bridges/aqueducts up the Yarmuk gorge) is well documented as ENGINEERING but its intermediate STATION NAMES are not in the consulted sources — a research gap (the famous Tell esh-Shehab bridge, a T.E. Lawrence target, lies on this stretch; verify).",
    "history": "The Haifa–Deraa branch of the Hejaz Railway (1,050 mm), inaugurated 15 October 1905, gave the Hejaz system its outlet to the Mediterranean at Haifa. It ran ~161 km up the Jezreel and Harod valleys to the Jordan, then climbed the Yarmuk gorge to meet the Hejaz main line at Deraa.",
    "verification_status": "unverified",
    "source_ids": [
      "levantrain_system",
      "pr_diagram_1925",
      "shemer_jezreel",
      "wp_hejaz",
      "wp_jezreel"
    ]
  },
  "features": [
    {
      "type": "Feature",
      "geometry": {
        "type": "LineString",
        "coordinates": [
          [
            35.025864,
            32.812974
          ],
          [
            35.026937,
            32.812054
          ],
          [
            35.027174,
            32.811554
          ],
          [
            35.027043,
            32.808721
          ],
          [
            35.024652,
            32.806051
          ],
          [
            35.02317,
            32.805935
          ],
          [
            35.020411,
            32.803812
          ],
          [
            35.019598,
            32.802048
          ],
          [
            35.019537,
            32.798489
          ],
          [
            35.026124,
            32.795734
          ],
          [
            35.03172,
            32.793614
          ],
          [
            35.033184,
            32.792814
          ],
          [
            35.034273,
            32.792014
          ],
          [
            35.035608,
            32.790606
          ],
          [
            35.036474,
            32.789247
          ],
          [
            35.036944,
            32.788118
          ],
          [
            35.038423,
            32.783107
          ],
          [
            35.039296,
            32.781522
          ],
          [
            35.040559,
            32.779894
          ]
        ]
      },
      "properties": {
        "route_id": "haifa-deraa",
        "sequence": 1,
        "from": "Haifa",
        "to": "Balad al-Sheikh",
        "from_id": "haifa",
        "to_id": "balad-al-sheikh",
        "geometry_status": "surveyed",
        "geometry_source": "osm",
        "corridor_confidence": "high",
        "connection_status": "documented",
        "source_ids": [
          "osm"
        ]
      }
    },
    {
      "type": "Feature",
      "geometry": {
        "type": "LineString",
        "coordinates": [
          [
            35.04278,
            32.7725
          ],
          [
            35.039444,
            32.771111
          ]
        ]
      },
      "properties": {
        "route_id": "haifa-deraa",
        "sequence": 2,
        "from": "Balad al-Sheikh",
        "to": "Nesher",
        "from_id": "balad-al-sheikh",
        "to_id": "nesher",
        "geometry_status": "schematic",
        "geometry_source": "schematic",
        "corridor_confidence": "medium",
        "connection_status": "inferred"
      }
    },
    {
      "type": "Feature",
      "geometry": {
        "type": "LineString",
        "coordinates": [
          [
            35.040559,
            32.779894
          ],
          [
            35.042394,
            32.778675
          ],
          [
            35.045044,
            32.776612
          ],
          [
            35.056127,
            32.768587
          ],
          [
            35.057703,
            32.767315
          ],
          [
            35.059438,
            32.765487
          ],
          [
            35.060141,
            32.764554
          ],
          [
            35.063382,
            32.759658
          ],
          [
            35.063831,
            32.759129
          ],
          [
            35.068882,
            32.754073
          ],
          [
            35.071729,
            32.75148
          ],
          [
            35.078047,
            32.746721
          ],
          [
            35.079235,
            32.745705
          ],
          [
            35.080732,
            32.744027
          ],
          [
            35.081298,
            32.742663
          ]
        ]
      },
      "properties": {
        "route_id": "haifa-deraa",
        "sequence": 3,
        "from": "Nesher",
        "to": "Yagur",
        "from_id": "nesher",
        "to_id": "yagur",
        "geometry_status": "surveyed",
        "geometry_source": "osm",
        "corridor_confidence": "medium",
        "connection_status": "inferred",
        "source_ids": [
          "osm"
        ]
      }
    },
    {
      "type": "Feature",
      "geometry": {
        "type": "LineString",
        "coordinates": [
          [
            35.097598,
            32.72505
          ],
          [
            35.09803,
            32.724828
          ]
        ]
      },
      "properties": {
        "route_id": "haifa-deraa",
        "sequence": 4,
        "from": "Yagur",
        "to": "Elro'i",
        "from_id": "yagur",
        "to_id": "elro-i",
        "geometry_status": "surveyed",
        "geometry_source": "osm",
        "corridor_confidence": "low",
        "connection_status": "uncertain",
        "source_ids": [
          "osm"
        ]
      }
    },
    {
      "type": "Feature",
      "geometry": {
        "type": "LineString",
        "coordinates": [
          [
            35.09803,
            32.724828
          ],
          [
            35.097598,
            32.72505
          ]
        ]
      },
      "properties": {
        "route_id": "haifa-deraa",
        "sequence": 5,
        "from": "Elro'i",
        "to": "Kiryat Haroshet",
        "from_id": "elro-i",
        "to_id": "kiryat-haroshet",
        "geometry_status": "surveyed",
        "geometry_source": "osm",
        "corridor_confidence": "low",
        "connection_status": "uncertain",
        "source_ids": [
          "osm"
        ]
      }
    },
    {
      "type": "Feature",
      "geometry": {
        "type": "LineString",
        "coordinates": [
          [
            35.097598,
            32.72505
          ],
          [
            35.09803,
            32.724828
          ]
        ]
      },
      "properties": {
        "route_id": "haifa-deraa",
        "sequence": 6,
        "from": "Kiryat Haroshet",
        "to": "Kfar Yehoshua",
        "from_id": "kiryat-haroshet",
        "to_id": "kfar-yehoshua",
        "geometry_status": "surveyed",
        "geometry_source": "osm",
        "corridor_confidence": "medium",
        "connection_status": "inferred",
        "source_ids": [
          "osm"
        ]
      }
    },
    {
      "type": "Feature",
      "geometry": {
        "type": "LineString",
        "coordinates": [
          [
            35.101069,
            32.700221
          ],
          [
            35.101328,
            32.697845
          ],
          [
            35.101637,
            32.696266
          ],
          [
            35.102026,
            32.694958
          ],
          [
            35.102635,
            32.693558
          ],
          [
            35.103544,
            32.692044
          ],
          [
            35.104382,
            32.690957
          ],
          [
            35.105514,
            32.689776
          ],
          [
            35.106807,
            32.688675
          ],
          [
            35.109004,
            32.687189
          ],
          [
            35.110579,
            32.68641
          ],
          [
            35.121597,
            32.682247
          ],
          [
            35.123522,
            32.681695
          ],
          [
            35.128698,
            32.679786
          ],
          [
            35.135901,
            32.676935
          ],
          [
            35.136963,
            32.676375
          ],
          [
            35.138894,
            32.67513
          ],
          [
            35.14075,
            32.673521
          ],
          [
            35.141738,
            32.672402
          ],
          [
            35.148016,
            32.664571
          ],
          [
            35.14967,
            32.662731
          ],
          [
            35.151449,
            32.661196
          ],
          [
            35.15356,
            32.659934
          ],
          [
            35.155663,
            32.659042
          ],
          [
            35.158386,
            32.658188
          ],
          [
            35.173605,
            32.653685
          ],
          [
            35.177231,
            32.652791
          ],
          [
            35.179563,
            32.652569
          ],
          [
            35.185147,
            32.652735
          ],
          [
            35.188146,
            32.652579
          ],
          [
            35.190027,
            32.652253
          ],
          [
            35.198246,
            32.650228
          ],
          [
            35.199163,
            32.651819
          ],
          [
            35.20918,
            32.647378
          ],
          [
            35.29118,
            32.61014
          ]
        ]
      },
      "properties": {
        "route_id": "haifa-deraa",
        "sequence": 7,
        "from": "Kfar Yehoshua",
        "to": "Afula",
        "from_id": "kfar-yehoshua",
        "to_id": "afula",
        "geometry_status": "surveyed",
        "geometry_source": "osm",
        "corridor_confidence": "high",
        "connection_status": "documented",
        "source_ids": [
          "osm"
        ]
      }
    },
    {
      "type": "Feature",
      "geometry": {
        "type": "LineString",
        "coordinates": [
          [
            35.29118,
            32.61014
          ],
          [
            35.298393,
            32.60689
          ],
          [
            35.30253,
            32.608428
          ],
          [
            35.302333,
            32.607301
          ],
          [
            35.302402,
            32.605707
          ],
          [
            35.302871,
            32.604164
          ],
          [
            35.303733,
            32.602679
          ],
          [
            35.30531,
            32.600982
          ],
          [
            35.306993,
            32.599375
          ],
          [
            35.311291,
            32.596216
          ],
          [
            35.312526,
            32.595098
          ],
          [
            35.313656,
            32.593852
          ],
          [
            35.329516,
            32.572388
          ],
          [
            35.331012,
            32.57069
          ],
          [
            35.332071,
            32.569819
          ],
          [
            35.333773,
            32.568789
          ],
          [
            35.346269,
            32.562953
          ],
          [
            35.351381,
            32.560444
          ],
          [
            35.353276,
            32.559787
          ],
          [
            35.360131,
            32.557993
          ],
          [
            35.365927,
            32.556284
          ]
        ]
      },
      "properties": {
        "route_id": "haifa-deraa",
        "sequence": 8,
        "from": "Afula",
        "to": "Ein Harod",
        "from_id": "afula",
        "to_id": "ein-harod",
        "geometry_status": "surveyed",
        "geometry_source": "osm",
        "corridor_confidence": "medium",
        "connection_status": "inferred",
        "source_ids": [
          "osm"
        ]
      }
    },
    {
      "type": "Feature",
      "geometry": {
        "type": "LineString",
        "coordinates": [
          [
            35.393578,
            32.559218
          ],
          [
            35.401112,
            32.556389
          ]
        ]
      },
      "properties": {
        "route_id": "haifa-deraa",
        "sequence": 9,
        "from": "Ein Harod",
        "to": "Tel Yosef",
        "from_id": "ein-harod",
        "to_id": "tel-yosef",
        "geometry_status": "schematic",
        "geometry_source": "schematic",
        "corridor_confidence": "low",
        "connection_status": "uncertain"
      }
    },
    {
      "type": "Feature",
      "geometry": {
        "type": "LineString",
        "coordinates": [
          [
            35.401112,
            32.556389
          ],
          [
            35.4375,
            32.554165
          ]
        ]
      },
      "properties": {
        "route_id": "haifa-deraa",
        "sequence": 10,
        "from": "Tel Yosef",
        "to": "Shata",
        "from_id": "tel-yosef",
        "to_id": "shata",
        "geometry_status": "schematic",
        "geometry_source": "schematic",
        "corridor_confidence": "low",
        "connection_status": "uncertain"
      }
    },
    {
      "type": "Feature",
      "geometry": {
        "type": "LineString",
        "coordinates": [
          [
            35.4375,
            32.554165
          ],
          [
            35.4757,
            32.5218
          ]
        ]
      },
      "properties": {
        "route_id": "haifa-deraa",
        "sequence": 11,
        "from": "Shata",
        "to": "HaSade",
        "from_id": "shata",
        "to_id": "hasade",
        "geometry_status": "schematic",
        "geometry_source": "schematic",
        "corridor_confidence": "low",
        "connection_status": "uncertain"
      }
    },
    {
      "type": "Feature",
      "geometry": {
        "type": "LineString",
        "coordinates": [
          [
            35.4757,
            32.5218
          ],
          [
            35.488526,
            32.515005
          ]
        ]
      },
      "properties": {
        "route_id": "haifa-deraa",
        "sequence": 12,
        "from": "HaSade",
        "to": "Beit She'an",
        "from_id": "hasade",
        "to_id": "beit-she-an",
        "geometry_status": "schematic",
        "geometry_source": "schematic",
        "corridor_confidence": "medium",
        "connection_status": "inferred"
      }
    },
    {
      "type": "Feature",
      "geometry": {
        "type": "LineString",
        "coordinates": [
          [
            35.488526,
            32.515005
          ],
          [
            35.551,
            32.5552
          ]
        ]
      },
      "properties": {
        "route_id": "haifa-deraa",
        "sequence": 13,
        "from": "Beit She'an",
        "to": "Beit Yosef",
        "from_id": "beit-she-an",
        "to_id": "beit-yosef",
        "geometry_status": "schematic",
        "geometry_source": "schematic",
        "corridor_confidence": "low",
        "connection_status": "uncertain"
      }
    },
    {
      "type": "Feature",
      "geometry": {
        "type": "LineString",
        "coordinates": [
          [
            35.54334,
            32.560247
          ],
          [
            35.544742,
            32.561617
          ],
          [
            35.547006,
            32.562818
          ],
          [
            35.547543,
            32.563297
          ],
          [
            35.547723,
            32.563601
          ],
          [
            35.5477,
            32.564287
          ],
          [
            35.547361,
            32.565682
          ],
          [
            35.547366,
            32.566244
          ],
          [
            35.547791,
            32.567122
          ],
          [
            35.548399,
            32.567949
          ],
          [
            35.549133,
            32.569341
          ],
          [
            35.549926,
            32.571142
          ],
          [
            35.550778,
            32.573761
          ],
          [
            35.550861,
            32.574506
          ],
          [
            35.550781,
            32.576156
          ],
          [
            35.549728,
            32.586286
          ],
          [
            35.548464,
            32.600075
          ],
          [
            35.548543,
            32.600822
          ],
          [
            35.548906,
            32.601574
          ],
          [
            35.551899,
            32.604403
          ],
          [
            35.556114,
            32.608029
          ],
          [
            35.556778,
            32.608753
          ],
          [
            35.557499,
            32.610287
          ],
          [
            35.55842,
            32.612755
          ],
          [
            35.56019,
            32.617927
          ]
        ]
      },
      "properties": {
        "route_id": "haifa-deraa",
        "sequence": 14,
        "from": "Beit Yosef",
        "to": "Gesher",
        "from_id": "beit-yosef",
        "to_id": "gesher",
        "geometry_status": "surveyed",
        "geometry_source": "osm",
        "corridor_confidence": "medium",
        "connection_status": "inferred",
        "source_ids": [
          "osm"
        ]
      }
    },
    {
      "type": "Feature",
      "geometry": {
        "type": "LineString",
        "coordinates": [
          [
            35.56019,
            32.617927
          ],
          [
            35.561285,
            32.619587
          ],
          [
            35.563851,
            32.623074
          ],
          [
            35.564159,
            32.623397
          ],
          [
            35.565898,
            32.624575
          ],
          [
            35.56622,
            32.625117
          ],
          [
            35.566415,
            32.626182
          ],
          [
            35.566865,
            32.626679
          ],
          [
            35.567938,
            32.627312
          ],
          [
            35.5702,
            32.628415
          ],
          [
            35.571071,
            32.629137
          ]
        ]
      },
      "properties": {
        "route_id": "haifa-deraa",
        "sequence": 15,
        "from": "Gesher",
        "to": "Naharayim",
        "from_id": "gesher",
        "to_id": "naharayim",
        "geometry_status": "surveyed",
        "geometry_source": "osm",
        "corridor_confidence": "medium",
        "connection_status": "inferred",
        "source_ids": [
          "osm"
        ]
      }
    },
    {
      "type": "Feature",
      "geometry": {
        "type": "LineString",
        "coordinates": [
          [
            35.571071,
            32.629137
          ],
          [
            35.571565,
            32.630068
          ],
          [
            35.571617,
            32.631144
          ],
          [
            35.571424,
            32.632165
          ],
          [
            35.571091,
            32.633213
          ],
          [
            35.570994,
            32.63399
          ],
          [
            35.571155,
            32.635571
          ],
          [
            35.570533,
            32.639574
          ],
          [
            35.570513,
            32.640196
          ],
          [
            35.570696,
            32.641433
          ],
          [
            35.571105,
            32.643166
          ],
          [
            35.571627,
            32.644197
          ],
          [
            35.571796,
            32.64434
          ],
          [
            35.573062,
            32.64483
          ],
          [
            35.573202,
            32.645431
          ],
          [
            35.573965,
            32.646802
          ],
          [
            35.574371,
            32.647331
          ],
          [
            35.575382,
            32.64828
          ],
          [
            35.57427,
            32.654974
          ]
        ]
      },
      "properties": {
        "route_id": "haifa-deraa",
        "sequence": 16,
        "from": "Naharayim",
        "to": "al-Dalhamiyya",
        "from_id": "naharayim",
        "to_id": "al-dalhamiyya",
        "geometry_status": "surveyed",
        "geometry_source": "osm",
        "corridor_confidence": "low",
        "connection_status": "uncertain",
        "source_ids": [
          "osm"
        ]
      }
    },
    {
      "type": "Feature",
      "geometry": {
        "type": "LineString",
        "coordinates": [
          [
            35.57427,
            32.654974
          ],
          [
            35.574257,
            32.656242
          ],
          [
            35.57505,
            32.658853
          ],
          [
            35.575229,
            32.660042
          ],
          [
            35.584237,
            32.692826
          ],
          [
            35.586674,
            32.701349
          ]
        ]
      },
      "properties": {
        "route_id": "haifa-deraa",
        "sequence": 17,
        "from": "al-Dalhamiyya",
        "to": "Samakh (Tzemah)",
        "from_id": "al-dalhamiyya",
        "to_id": "samakh-tzemah",
        "geometry_status": "surveyed",
        "geometry_source": "osm",
        "corridor_confidence": "medium",
        "connection_status": "inferred",
        "source_ids": [
          "osm"
        ]
      }
    },
    {
      "type": "Feature",
      "geometry": {
        "type": "LineString",
        "coordinates": [
          [
            35.586674,
            32.701349
          ],
          [
            35.587131,
            32.702513
          ],
          [
            35.58801,
            32.703344
          ],
          [
            35.589369,
            32.703725
          ],
          [
            35.595091,
            32.704788
          ],
          [
            35.59626,
            32.704756
          ],
          [
            35.597845,
            32.704412
          ],
          [
            35.598928,
            32.704024
          ],
          [
            35.601031,
            32.702814
          ],
          [
            35.624625,
            32.687227
          ],
          [
            35.626202,
            32.68654
          ],
          [
            35.627994,
            32.685944
          ],
          [
            35.630117,
            32.685578
          ],
          [
            35.631022,
            32.685602
          ],
          [
            35.631859,
            32.685792
          ],
          [
            35.633658,
            32.686508
          ],
          [
            35.634656,
            32.687059
          ],
          [
            35.635668,
            32.68739
          ],
          [
            35.636558,
            32.687453
          ],
          [
            35.637241,
            32.687312
          ],
          [
            35.637985,
            32.68702
          ],
          [
            35.638865,
            32.686496
          ],
          [
            35.639687,
            32.685804
          ],
          [
            35.640695,
            32.683837
          ],
          [
            35.641694,
            32.682486
          ],
          [
            35.64215,
            32.682198
          ],
          [
            35.642476,
            32.682114
          ],
          [
            35.644024,
            32.682366
          ],
          [
            35.644519,
            32.682265
          ],
          [
            35.645003,
            32.681992
          ],
          [
            35.646912,
            32.680279
          ],
          [
            35.647566,
            32.679976
          ],
          [
            35.648435,
            32.679836
          ],
          [
            35.650002,
            32.679755
          ],
          [
            35.650405,
            32.679838
          ],
          [
            35.650909,
            32.680199
          ],
          [
            35.651773,
            32.681219
          ],
          [
            35.652485,
            32.681624
          ],
          [
            35.652781,
            32.681964
          ],
          [
            35.65329,
            32.683141
          ],
          [
            35.653585,
            32.683527
          ],
          [
            35.654691,
            32.684145
          ],
          [
            35.655769,
            32.68461
          ],
          [
            35.657195,
            32.684778
          ],
          [
            35.659746,
            32.684091
          ]
        ]
      },
      "properties": {
        "route_id": "haifa-deraa",
        "sequence": 18,
        "from": "Samakh (Tzemah)",
        "to": "al-Hamma",
        "from_id": "samakh-tzemah",
        "to_id": "al-hamma",
        "geometry_status": "surveyed",
        "geometry_source": "osm",
        "corridor_confidence": "high",
        "connection_status": "documented",
        "source_ids": [
          "osm"
        ]
      }
    },
    {
      "type": "Feature",
      "geometry": {
        "type": "LineString",
        "coordinates": [
          [
            35.6592,
            32.6837
          ],
          [
            36.1,
            32.617
          ]
        ]
      },
      "properties": {
        "route_id": "haifa-deraa",
        "sequence": 19,
        "from": "al-Hamma",
        "to": "Deraa",
        "from_id": "al-hamma",
        "to_id": "deraa",
        "geometry_status": "schematic",
        "geometry_source": "schematic",
        "corridor_confidence": "medium",
        "connection_status": "inferred"
      }
    }
  ]
}
