{
  "type": "FeatureCollection",
  "route": {
    "route_id": "masudiya-nablus",
    "name": "Mas'udiya–Nablus Branch",
    "countries": "Palestine",
    "gauge_mm": 1050,
    "era": "historic",
    "color": "#a855f7",
    "corridor_confidence": "medium",
    "description": "Narrow-gauge spur south from the Mas'udiya junction on the Eastern Railway down to Nablus.",
    "history": "Chainage from Mas'udiya (0). Segment lengths agree with both the Afula–Nablus and Nablus–Tulkarem chainings on the 1925 diagram. Geometry schematic.",
    "verification_status": "unverified",
    "source_ids": [
      "pr_diagram_1925"
    ]
  },
  "features": [
    {
      "type": "Feature",
      "geometry": {
        "type": "LineString",
        "coordinates": [
          [
            35.17912,
            32.28146
          ],
          [
            35.17979,
            32.281761
          ],
          [
            35.180442,
            32.28243
          ],
          [
            35.180835,
            32.282673
          ],
          [
            35.18519,
            32.284159
          ],
          [
            35.185592,
            32.284194
          ],
          [
            35.186063,
            32.284077
          ],
          [
            35.186398,
            32.283876
          ],
          [
            35.186516,
            32.283677
          ],
          [
            35.186583,
            32.28326
          ],
          [
            35.186344,
            32.282797
          ],
          [
            35.186108,
            32.282643
          ],
          [
            35.183726,
            32.281891
          ],
          [
            35.183082,
            32.281537
          ],
          [
            35.18261,
            32.281092
          ],
          [
            35.18217,
            32.280466
          ],
          [
            35.181401,
            32.279976
          ],
          [
            35.180529,
            32.279133
          ],
          [
            35.180006,
            32.278398
          ],
          [
            35.179724,
            32.277119
          ],
          [
            35.179789,
            32.276031
          ],
          [
            35.180017,
            32.27506
          ],
          [
            35.180214,
            32.274743
          ],
          [
            35.181713,
            32.273716
          ],
          [
            35.182594,
            32.272741
          ],
          [
            35.183162,
            32.27238
          ],
          [
            35.183804,
            32.272155
          ],
          [
            35.185286,
            32.272065
          ],
          [
            35.187262,
            32.271313
          ],
          [
            35.188681,
            32.271125
          ],
          [
            35.189614,
            32.271239
          ],
          [
            35.190402,
            32.271059
          ],
          [
            35.191522,
            32.271038
          ],
          [
            35.194998,
            32.271843
          ],
          [
            35.195317,
            32.272089
          ],
          [
            35.195948,
            32.273074
          ],
          [
            35.196335,
            32.273298
          ],
          [
            35.197232,
            32.273454
          ],
          [
            35.197903,
            32.27337
          ],
          [
            35.198548,
            32.272887
          ],
          [
            35.198693,
            32.272164
          ],
          [
            35.198523,
            32.271677
          ],
          [
            35.196953,
            32.270401
          ],
          [
            35.195631,
            32.269856
          ],
          [
            35.195325,
            32.269645
          ],
          [
            35.194486,
            32.268649
          ],
          [
            35.193922,
            32.268487
          ],
          [
            35.191755,
            32.268532
          ],
          [
            35.191182,
            32.268356
          ],
          [
            35.190887,
            32.268134
          ],
          [
            35.1907,
            32.267839
          ],
          [
            35.19062,
            32.267449
          ],
          [
            35.19087,
            32.266194
          ],
          [
            35.190701,
            32.265738
          ],
          [
            35.189687,
            32.264042
          ],
          [
            35.189846,
            32.264589
          ]
        ]
      },
      "properties": {
        "route_id": "masudiya-nablus",
        "sequence": 1,
        "from": "Mas'udiya",
        "to": "Sabastieh",
        "from_id": "mas-udiya",
        "to_id": "sabastieh",
        "geometry_status": "partial",
        "geometry_source": "osm",
        "corridor_confidence": "medium",
        "connection_status": "documented",
        "source_ids": [
          "osm"
        ]
      }
    },
    {
      "type": "Feature",
      "geometry": {
        "type": "LineString",
        "coordinates": [
          [
            35.189846,
            32.264589
          ],
          [
            35.189338,
            32.262997
          ],
          [
            35.189317,
            32.262035
          ],
          [
            35.189471,
            32.261726
          ],
          [
            35.189779,
            32.261412
          ],
          [
            35.190819,
            32.260899
          ],
          [
            35.191019,
            32.260672
          ],
          [
            35.191004,
            32.25944
          ],
          [
            35.191327,
            32.258857
          ],
          [
            35.191778,
            32.258569
          ],
          [
            35.193146,
            32.258134
          ],
          [
            35.193976,
            32.257376
          ],
          [
            35.195395,
            32.25695
          ],
          [
            35.19593,
            32.256419
          ],
          [
            35.196544,
            32.256057
          ],
          [
            35.197017,
            32.255944
          ],
          [
            35.197544,
            32.255947
          ],
          [
            35.199036,
            32.256222
          ],
          [
            35.199401,
            32.256109
          ],
          [
            35.199781,
            32.255747
          ],
          [
            35.199874,
            32.255221
          ],
          [
            35.198932,
            32.253891
          ],
          [
            35.198773,
            32.253488
          ],
          [
            35.198783,
            32.252966
          ],
          [
            35.19927,
            32.25176
          ],
          [
            35.198481,
            32.2498
          ],
          [
            35.198568,
            32.249308
          ],
          [
            35.198824,
            32.248869
          ],
          [
            35.199316,
            32.248498
          ],
          [
            35.199664,
            32.248359
          ],
          [
            35.20051,
            32.248307
          ],
          [
            35.201857,
            32.248568
          ],
          [
            35.203415,
            32.249078
          ],
          [
            35.203892,
            32.249052
          ],
          [
            35.204318,
            32.248725
          ],
          [
            35.204606,
            32.247594
          ],
          [
            35.204804,
            32.247228
          ],
          [
            35.205215,
            32.246928
          ],
          [
            35.205776,
            32.246752
          ],
          [
            35.20719,
            32.246699
          ],
          [
            35.209464,
            32.24552
          ],
          [
            35.20998,
            32.245359
          ],
          [
            35.210533,
            32.245289
          ],
          [
            35.211399,
            32.245397
          ],
          [
            35.212958,
            32.246175
          ],
          [
            35.214167,
            32.2466
          ],
          [
            35.215025,
            32.247034
          ],
          [
            35.215392,
            32.247409
          ],
          [
            35.215852,
            32.248346
          ],
          [
            35.21689,
            32.249144
          ],
          [
            35.216993,
            32.249693
          ],
          [
            35.216717,
            32.25164
          ],
          [
            35.216251,
            32.252962
          ],
          [
            35.21626,
            32.253155
          ],
          [
            35.216369,
            32.25348
          ],
          [
            35.216717,
            32.253845
          ],
          [
            35.217426,
            32.254071
          ],
          [
            35.21806,
            32.253931
          ],
          [
            35.219675,
            32.253282
          ],
          [
            35.220524,
            32.253194
          ],
          [
            35.221282,
            32.253366
          ],
          [
            35.22262,
            32.254121
          ],
          [
            35.223267,
            32.254131
          ],
          [
            35.223654,
            32.253957
          ],
          [
            35.224397,
            32.253225
          ],
          [
            35.224785,
            32.253015
          ],
          [
            35.226009,
            32.253034
          ],
          [
            35.226518,
            32.252855
          ],
          [
            35.22675,
            32.252648
          ],
          [
            35.227386,
            32.251662
          ],
          [
            35.227818,
            32.251297
          ],
          [
            35.228379,
            32.251141
          ],
          [
            35.230514,
            32.250937
          ],
          [
            35.230832,
            32.250721
          ],
          [
            35.231464,
            32.249811
          ],
          [
            35.233217,
            32.249242
          ],
          [
            35.233533,
            32.248858
          ],
          [
            35.234196,
            32.245986
          ],
          [
            35.234291,
            32.243078
          ],
          [
            35.234248,
            32.242629
          ],
          [
            35.234,
            32.241931
          ],
          [
            35.233988,
            32.241557
          ],
          [
            35.235342,
            32.239528
          ],
          [
            35.235677,
            32.239152
          ],
          [
            35.236355,
            32.238651
          ],
          [
            35.236921,
            32.238373
          ],
          [
            35.238682,
            32.237213
          ],
          [
            35.240024,
            32.235726
          ],
          [
            35.240481,
            32.235396
          ],
          [
            35.241025,
            32.235187
          ],
          [
            35.241478,
            32.235137
          ],
          [
            35.241919,
            32.235187
          ],
          [
            35.243093,
            32.235563
          ],
          [
            35.243698,
            32.235499
          ],
          [
            35.244254,
            32.235105
          ],
          [
            35.244712,
            32.233691
          ],
          [
            35.245223,
            32.233052
          ],
          [
            35.247481,
            32.231929
          ],
          [
            35.249321,
            32.231904
          ],
          [
            35.2544,
            32.2211
          ]
        ]
      },
      "properties": {
        "route_id": "masudiya-nablus",
        "sequence": 2,
        "from": "Sabastieh",
        "to": "Nablus",
        "from_id": "sabastieh",
        "to_id": "nablus",
        "geometry_status": "partial",
        "geometry_source": "osm",
        "corridor_confidence": "medium",
        "connection_status": "documented",
        "source_ids": [
          "osm"
        ]
      }
    }
  ]
}
